{"type":"FeatureCollection","crs":{"type":"name","properties":{"name":"EPSG:4326"}},"features":[{"type":"Feature","id":43444,"geometry":{"type":"Polygon","coordinates":[[[-112.075013561747,33.4250053339626],[-112.075013561747,33.4333386692579],[-112.066680227452,33.4333386692579],[-112.066680227452,33.4250053339626],[-112.075013561747,33.4250053339626]]]},"properties":{"OBJECTID":43444,"CEILING":100,"UNIT":"Feet","MAP_EFF":"8/6/2026","LAST_EDIT":"5/8/2017","LATITUDE":33.429172,"LONGITUDE":-112.07084689,"APT1_FAAID":"PHX","APT1_ICAO":"KPHX","APT1_NAME":"Phoenix Sky Harbor Intl","APT1_LAANC":1,"AIRSPACE_1":"B","REGION":"Western"}},{"type":"Feature","id":43567,"geometry":{"type":"Polygon","coordinates":[[[-112.066680227452,33.4333386692579],[-112.066680227452,33.4416720035533],[-112.058346892157,33.4416720035533],[-112.058346892157,33.4333386692579],[-112.066680227452,33.4333386692579]]]},"properties":{"OBJECTID":43567,"CEILING":0,"UNIT":"Feet","MAP_EFF":"8/6/2026","LAST_EDIT":"5/8/2017","LATITUDE":33.43750534,"LONGITUDE":-112.06251356,"APT1_FAAID":"PHX","APT1_ICAO":"KPHX","APT1_NAME":"Phoenix Sky Harbor Intl","APT1_LAANC":1,"AIRSPACE_1":"B","REGION":"Western"}},{"type":"Feature","id":43690,"geometry":{"type":"Polygon","coordinates":[[[-112.025013551975,33.4416720035533],[-112.025013551975,33.4500053388486],[-112.01668021668,33.4500053388486],[-112.01668021668,33.4416720035533],[-112.025013551975,33.4416720035533]]]},"properties":{"OBJECTID":43690,"CEILING":0,"UNIT":"Feet","MAP_EFF":"8/6/2026","LAST_EDIT":"5/8/2017","LATITUDE":33.44583867,"LONGITUDE":-112.02084688,"APT1_FAAID":"PHX","APT1_ICAO":"KPHX","APT1_NAME":"Phoenix Sky Harbor Intl","APT1_LAANC":1,"AIRSPACE_1":"B","REGION":"Western"}},{"type":"Feature","id":43206,"geometry":{"type":"Polygon","coordinates":[[[-112.091680232338,33.4083386643719],[-112.091680232338,33.4166719986673],[-112.083346897043,33.4166719986673],[-112.083346897043,33.4083386643719],[-112.091680232338,33.4083386643719]]]},"properties":{"OBJECTID":43206,"CEILING":100,"UNIT":"Feet","MAP_EFF":"8/6/2026","LAST_EDIT":"5/8/2017","LATITUDE":33.41250533,"LONGITUDE":-112.08751356,"APT1_FAAID":"PHX","APT1_ICAO":"KPHX","APT1_NAME":"Phoenix Sky Harbor Intl","APT1_LAANC":1,"AIRSPACE_1":"B","REGION":"Western"}},{"type":"Feature","id":43212,"geometry":{"type":"Polygon","coordinates":[[[-112.033346887271,33.4083386643719],[-112.033346887271,33.4166719986673],[-112.025013551975,33.4166719986673],[-112.025013551975,33.4083386643719],[-112.033346887271,33.4083386643719]]]},"properties":{"OBJECTID":43212,"CEILING":100,"UNIT":"Feet","MAP_EFF":"8/6/2026","LAST_EDIT":"5/8/2017","LATITUDE":33.41250533,"LONGITUDE":-112.02918022,"APT1_FAAID":"PHX","APT1_ICAO":"KPHX","APT1_NAME":"Phoenix Sky Harbor Intl","APT1_LAANC":1,"AIRSPACE_1":"B","REGION":"Western"}},{"type":"Feature","id":43799,"geometry":{"type":"Polygon","coordinates":[[[-112.058346892157,33.4500053388486],[-112.058346892157,33.458338674144],[-112.050013556861,33.458338674144],[-112.050013556861,33.4500053388486],[-112.058346892157,33.4500053388486]]]},"properties":{"OBJECTID":43799,"CEILING":100,"UNIT":"Feet","MAP_EFF":"8/6/2026","LAST_EDIT":"5/8/2017","LATITUDE":33.454172009999994,"LONGITUDE":-112.05418022,"APT1_FAAID":"PHX","APT1_ICAO":"KPHX","APT1_NAME":"Phoenix Sky Harbor Intl","APT1_LAANC":1,"AIRSPACE_1":"B","REGION":"Western"}},{"type":"Feature","id":43106,"geometry":{"type":"Polygon","coordinates":[[[-112.091680232338,33.4000053290765],[-112.091680232338,33.4083386643719],[-112.083346897043,33.4083386643719],[-112.083346897043,33.4000053290765],[-112.091680232338,33.4000053290765]]]},"properties":{"OBJECTID":43106,"CEILING":100,"UNIT":"Feet","MAP_EFF":"8/6/2026","LAST_EDIT":"5/8/2017","LATITUDE":33.404172,"LONGITUDE":-112.08751356,"APT1_FAAID":"PHX","APT1_ICAO":"KPHX","APT1_NAME":"Phoenix Sky Harbor Intl","APT1_LAANC":1,"AIRSPACE_1":"B","REGION":"Western"}},{"type":"Feature","id":336127,"geometry":{"type":"Polygon","coordinates":[[[-112.075013561747,33.4666720094393],[-112.075013561747,33.4750053437347],[-112.066680227452,33.4750053437347],[-112.066680227452,33.4666720094393],[-112.075013561747,33.4666720094393]]]},"properties":{"OBJECTID":336127,"CEILING":200,"UNIT":"Feet","MAP_EFF":"8/6/2026","LAST_EDIT":"5/8/2017","LATITUDE":33.47083868,"LONGITUDE":-112.07084689,"APT1_FAAID":"PHX","APT1_ICAO":"KPHX","APT1_NAME":"Phoenix Sky Harbor Intl","APT1_LAANC":1,"AIRSPACE_1":"B","REGION":"Western"}},{"type":"Feature","id":43693,"geometry":{"type":"Polygon","coordinates":[[[-112.000013547089,33.4416720035533],[-112.000013547089,33.4500053388486],[-111.991680211794,33.4500053388486],[-111.991680211794,33.4416720035533],[-112.000013547089,33.4416720035533]]]},"properties":{"OBJECTID":43693,"CEILING":0,"UNIT":"Feet","MAP_EFF":"8/6/2026","LAST_EDIT":"5/8/2017","LATITUDE":33.44583867,"LONGITUDE":-111.99584688,"APT1_FAAID":"PHX","APT1_ICAO":"KPHX","APT1_NAME":"Phoenix Sky Harbor Intl","APT1_LAANC":1,"AIRSPACE_1":"B","REGION":"Western"}},{"type":"Feature","id":336052,"geometry":{"type":"Polygon","coordinates":[[[-112.075013561747,33.4333386692579],[-112.075013561747,33.4416720035533],[-112.066680227452,33.4416720035533],[-112.066680227452,33.4333386692579],[-112.075013561747,33.4333386692579]]]},"properties":{"OBJECTID":336052,"CEILING":100,"UNIT":"Feet","MAP_EFF":"8/6/2026","LAST_EDIT":"5/8/2017","LATITUDE":33.43750534,"LONGITUDE":-112.07084689,"APT1_FAAID":"PHX","APT1_ICAO":"KPHX","APT1_NAME":"Phoenix Sky Harbor Intl","APT1_LAANC":1,"AIRSPACE_1":"B","REGION":"Western"}},{"type":"Feature","id":44214,"geometry":{"type":"Polygon","coordinates":[[[-112.083346897043,33.48333867903],[-112.083346897043,33.4916720143253],[-112.075013561747,33.4916720143253],[-112.075013561747,33.48333867903],[-112.083346897043,33.48333867903]]]},"properties":{"OBJECTID":44214,"CEILING":300,"UNIT":"Feet","MAP_EFF":"8/6/2026","LAST_EDIT":"10/27/2017","LATITUDE":33.48750535,"LONGITUDE":-112.07918022999999,"APT1_FAAID":"PHX","APT1_ICAO":"KPHX","APT1_NAME":"Phoenix Sky Harbor Intl","APT1_LAANC":1,"AIRSPACE_1":"B","REGION":"Western"}},{"type":"Feature","id":336009,"geometry":{"type":"Polygon","coordinates":[[[-112.100013566633,33.4166719986673],[-112.100013566633,33.4250053339626],[-112.091680232338,33.4250053339626],[-112.091680232338,33.4166719986673],[-112.100013566633,33.4166719986673]]]},"properties":{"OBJECTID":336009,"CEILING":100,"UNIT":"Feet","MAP_EFF":"8/6/2026","LAST_EDIT":"5/8/2017","LATITUDE":33.42083867,"LONGITUDE":-112.0958469,"APT1_FAAID":"PHX","APT1_ICAO":"KPHX","APT1_NAME":"Phoenix Sky Harbor Intl","APT1_LAANC":1,"AIRSPACE_1":"B","REGION":"Western"}},{"type":"Feature","id":43209,"geometry":{"type":"Polygon","coordinates":[[[-112.066680227452,33.4083386643719],[-112.066680227452,33.4166719986673],[-112.058346892157,33.4166719986673],[-112.058346892157,33.4083386643719],[-112.066680227452,33.4083386643719]]]},"properties":{"OBJECTID":43209,"CEILING":100,"UNIT":"Feet","MAP_EFF":"8/6/2026","LAST_EDIT":"5/8/2017","LATITUDE":33.41250533,"LONGITUDE":-112.06251356,"APT1_FAAID":"PHX","APT1_ICAO":"KPHX","APT1_NAME":"Phoenix Sky Harbor Intl","APT1_LAANC":1,"AIRSPACE_1":"B","REGION":"Western"}},{"type":"Feature","id":43447,"geometry":{"type":"Polygon","coordinates":[[[-112.050013556861,33.4250053339626],[-112.050013556861,33.4333386692579],[-112.041680221566,33.4333386692579],[-112.041680221566,33.4250053339626],[-112.050013556861,33.4250053339626]]]},"properties":{"OBJECTID":43447,"CEILING":0,"UNIT":"Feet","MAP_EFF":"8/6/2026","LAST_EDIT":"5/8/2017","LATITUDE":33.429172,"LONGITUDE":-112.04584688999999,"APT1_FAAID":"PHX","APT1_ICAO":"KPHX","APT1_NAME":"Phoenix Sky Harbor Intl","APT1_LAANC":1,"AIRSPACE_1":"B","REGION":"Western"}},{"type":"Feature","id":44111,"geometry":{"type":"Polygon","coordinates":[[[-112.083346897043,33.4750053437347],[-112.083346897043,33.48333867903],[-112.075013561747,33.48333867903],[-112.075013561747,33.4750053437347],[-112.083346897043,33.4750053437347]]]},"properties":{"OBJECTID":44111,"CEILING":200,"UNIT":"Feet","MAP_EFF":"8/6/2026","LAST_EDIT":"5/8/2017","LATITUDE":33.47917201,"LONGITUDE":-112.07918022999999,"APT1_FAAID":"PHX","APT1_ICAO":"KPHX","APT1_NAME":"Phoenix Sky Harbor Intl","APT1_LAANC":1,"AIRSPACE_1":"B","REGION":"Western"}},{"type":"Feature","id":43796,"geometry":{"type":"Polygon","coordinates":[[[-112.091680232338,33.4500053388486],[-112.091680232338,33.458338674144],[-112.083346897043,33.458338674144],[-112.083346897043,33.4500053388486],[-112.091680232338,33.4500053388486]]]},"properties":{"OBJECTID":43796,"CEILING":100,"UNIT":"Feet","MAP_EFF":"8/6/2026","LAST_EDIT":"5/8/2017","LATITUDE":33.454172009999994,"LONGITUDE":-112.08751356,"APT1_FAAID":"PHX","APT1_ICAO":"KPHX","APT1_NAME":"Phoenix Sky Harbor Intl","APT1_LAANC":1,"AIRSPACE_1":"B","REGION":"Western"}},{"type":"Feature","id":43215,"geometry":{"type":"Polygon","coordinates":[[[-112.008346882385,33.4083386643719],[-112.008346882385,33.4166719986673],[-112.000013547089,33.4166719986673],[-112.000013547089,33.4083386643719],[-112.008346882385,33.4083386643719]]]},"properties":{"OBJECTID":43215,"CEILING":100,"UNIT":"Feet","MAP_EFF":"8/6/2026","LAST_EDIT":"5/8/2017","LATITUDE":33.41250533,"LONGITUDE":-112.00418020999999,"APT1_FAAID":"PHX","APT1_ICAO":"KPHX","APT1_NAME":"Phoenix Sky Harbor Intl","APT1_LAANC":1,"AIRSPACE_1":"B","REGION":"Western"}},{"type":"Feature","id":43558,"geometry":{"type":"Polygon","coordinates":[[[-112.091680232338,33.4333386692579],[-112.091680232338,33.4416720035533],[-112.083346897043,33.4416720035533],[-112.083346897043,33.4333386692579],[-112.091680232338,33.4333386692579]]]},"properties":{"OBJECTID":43558,"CEILING":100,"UNIT":"Feet","MAP_EFF":"8/6/2026","LAST_EDIT":"5/8/2017","LATITUDE":33.43750534,"LONGITUDE":-112.08751356,"APT1_FAAID":"PHX","APT1_ICAO":"KPHX","APT1_NAME":"Phoenix Sky Harbor Intl","APT1_LAANC":1,"AIRSPACE_1":"B","REGION":"Western"}},{"type":"Feature","id":43902,"geometry":{"type":"Polygon","coordinates":[[[-112.091680232338,33.458338674144],[-112.091680232338,33.4666720094393],[-112.083346897043,33.4666720094393],[-112.083346897043,33.458338674144],[-112.091680232338,33.458338674144]]]},"properties":{"OBJECTID":43902,"CEILING":100,"UNIT":"Feet","MAP_EFF":"8/6/2026","LAST_EDIT":"5/8/2017","LATITUDE":33.46250534,"LONGITUDE":-112.08751356,"APT1_FAAID":"PHX","APT1_ICAO":"KPHX","APT1_NAME":"Phoenix Sky Harbor Intl","APT1_LAANC":1,"AIRSPACE_1":"B","REGION":"Western"}},{"type":"Feature","id":336181,"geometry":{"type":"Polygon","coordinates":[[[-112.091680232338,33.4916720143253],[-112.091680232338,33.5000053486207],[-112.083346897043,33.5000053486207],[-112.083346897043,33.4916720143253],[-112.091680232338,33.4916720143253]]]},"properties":{"OBJECTID":336181,"CEILING":300,"UNIT":"Feet","MAP_EFF":"8/6/2026","LAST_EDIT":"10/27/2017","LATITUDE":33.495838680000006,"LONGITUDE":-112.08751356,"APT1_FAAID":"PHX","APT1_ICAO":"KPHX","APT1_NAME":"Phoenix Sky Harbor Intl","APT1_LAANC":1,"AIRSPACE_1":"B","REGION":"Western"}},{"type":"Feature","id":43109,"geometry":{"type":"Polygon","coordinates":[[[-112.066680227452,33.4000053290765],[-112.066680227452,33.4083386643719],[-112.058346892157,33.4083386643719],[-112.058346892157,33.4000053290765],[-112.066680227452,33.4000053290765]]]},"properties":{"OBJECTID":43109,"CEILING":100,"UNIT":"Feet","MAP_EFF":"8/6/2026","LAST_EDIT":"5/8/2017","LATITUDE":33.404172,"LONGITUDE":-112.06251356,"APT1_FAAID":"PHX","APT1_ICAO":"KPHX","APT1_NAME":"Phoenix Sky Harbor Intl","APT1_LAANC":1,"AIRSPACE_1":"B","REGION":"Western"}},{"type":"Feature","id":43435,"geometry":{"type":"Polygon","coordinates":[[[-112.100013566633,33.4250053339626],[-112.100013566633,33.4333386692579],[-112.091680232338,33.4333386692579],[-112.091680232338,33.4250053339626],[-112.100013566633,33.4250053339626]]]},"properties":{"OBJECTID":43435,"CEILING":100,"UNIT":"Feet","MAP_EFF":"8/6/2026","LAST_EDIT":"5/8/2017","LATITUDE":33.429172,"LONGITUDE":-112.0958469,"APT1_FAAID":"PHX","APT1_ICAO":"KPHX","APT1_NAME":"Phoenix Sky Harbor Intl","APT1_LAANC":1,"AIRSPACE_1":"B","REGION":"Western"}},{"type":"Feature","id":43905,"geometry":{"type":"Polygon","coordinates":[[[-112.058346892157,33.458338674144],[-112.058346892157,33.4666720094393],[-112.050013556861,33.4666720094393],[-112.050013556861,33.458338674144],[-112.058346892157,33.458338674144]]]},"properties":{"OBJECTID":43905,"CEILING":100,"UNIT":"Feet","MAP_EFF":"8/6/2026","LAST_EDIT":"5/8/2017","LATITUDE":33.46250534,"LONGITUDE":-112.05418022,"APT1_FAAID":"PHX","APT1_ICAO":"KPHX","APT1_NAME":"Phoenix Sky Harbor Intl","APT1_LAANC":1,"AIRSPACE_1":"B","REGION":"Western"}},{"type":"Feature","id":43570,"geometry":{"type":"Polygon","coordinates":[[[-112.033346887271,33.4333386692579],[-112.033346887271,33.4416720035533],[-112.025013551975,33.4416720035533],[-112.025013551975,33.4333386692579],[-112.033346887271,33.4333386692579]]]},"properties":{"OBJECTID":43570,"CEILING":0,"UNIT":"Feet","MAP_EFF":"8/6/2026","LAST_EDIT":"5/8/2017","LATITUDE":33.43750534,"LONGITUDE":-112.02918022,"APT1_FAAID":"PHX","APT1_ICAO":"KPHX","APT1_NAME":"Phoenix Sky Harbor Intl","APT1_LAANC":0,"AIRSPACE_1":"B","REGION":"Western"}},{"type":"Feature","id":43329,"geometry":{"type":"Polygon","coordinates":[[[-112.025013551975,33.4166719986673],[-112.025013551975,33.4250053339626],[-112.01668021668,33.4250053339626],[-112.01668021668,33.4166719986673],[-112.025013551975,33.4166719986673]]]},"properties":{"OBJECTID":43329,"CEILING":0,"UNIT":"Feet","MAP_EFF":"8/6/2026","LAST_EDIT":"5/8/2017","LATITUDE":33.42083867,"LONGITUDE":-112.02084688,"APT1_FAAID":"PHX","APT1_ICAO":"KPHX","APT1_NAME":"Phoenix Sky Harbor Intl","APT1_LAANC":1,"AIRSPACE_1":"B","REGION":"Western"}},{"type":"Feature","id":336012,"geometry":{"type":"Polygon","coordinates":[[[-112.000013547089,33.4166719986673],[-112.000013547089,33.4250053339626],[-111.991680211794,33.4250053339626],[-111.991680211794,33.4166719986673],[-112.000013547089,33.4166719986673]]]},"properties":{"OBJECTID":336012,"CEILING":0,"UNIT":"Feet","MAP_EFF":"8/6/2026","LAST_EDIT":"5/8/2017","LATITUDE":33.42083867,"LONGITUDE":-111.99584688,"APT1_FAAID":"PHX","APT1_ICAO":"KPHX","APT1_NAME":"Phoenix Sky Harbor Intl","APT1_LAANC":1,"AIRSPACE_1":"B","REGION":"Western"}},{"type":"Feature","id":43210,"geometry":{"type":"Polygon","coordinates":[[[-112.058346892157,33.4083386643719],[-112.058346892157,33.4166719986673],[-112.050013556861,33.4166719986673],[-112.050013556861,33.4083386643719],[-112.058346892157,33.4083386643719]]]},"properties":{"OBJECTID":43210,"CEILING":100,"UNIT":"Feet","MAP_EFF":"8/6/2026","LAST_EDIT":"5/8/2017","LATITUDE":33.41250533,"LONGITUDE":-112.05418022,"APT1_FAAID":"PHX","APT1_ICAO":"KPHX","APT1_NAME":"Phoenix Sky Harbor Intl","APT1_LAANC":1,"AIRSPACE_1":"B","REGION":"Western"}},{"type":"Feature","id":43327,"geometry":{"type":"Polygon","coordinates":[[[-112.041680221566,33.4166719986673],[-112.041680221566,33.4250053339626],[-112.033346887271,33.4250053339626],[-112.033346887271,33.4166719986673],[-112.041680221566,33.4166719986673]]]},"properties":{"OBJECTID":43327,"CEILING":0,"UNIT":"Feet","MAP_EFF":"8/6/2026","LAST_EDIT":"5/8/2017","LATITUDE":33.42083867,"LONGITUDE":-112.03751355,"APT1_FAAID":"PHX","APT1_ICAO":"KPHX","APT1_NAME":"Phoenix Sky Harbor Intl","APT1_LAANC":1,"AIRSPACE_1":"B","REGION":"Western"}},{"type":"Feature","id":43682,"geometry":{"type":"Polygon","coordinates":[[[-112.050013556861,33.4416720035533],[-112.050013556861,33.4500053388486],[-112.041680221566,33.4500053388486],[-112.041680221566,33.4416720035533],[-112.050013556861,33.4416720035533]]]},"properties":{"OBJECTID":43682,"CEILING":0,"UNIT":"Feet","MAP_EFF":"8/6/2026","LAST_EDIT":"5/8/2017","LATITUDE":33.44583867,"LONGITUDE":-112.04584688999999,"APT1_FAAID":"PHX","APT1_ICAO":"KPHX","APT1_NAME":"Phoenix Sky Harbor Intl","APT1_LAANC":1,"AIRSPACE_1":"B","REGION":"Western"}},{"type":"Feature","id":44014,"geometry":{"type":"Polygon","coordinates":[[[-112.050013556861,33.4666720094393],[-112.050013556861,33.4750053437347],[-112.041680221566,33.4750053437347],[-112.041680221566,33.4666720094393],[-112.050013556861,33.4666720094393]]]},"properties":{"OBJECTID":44014,"CEILING":100,"UNIT":"Feet","MAP_EFF":"8/6/2026","LAST_EDIT":"5/8/2017","LATITUDE":33.47083868,"LONGITUDE":-112.04584688999999,"APT1_FAAID":"PHX","APT1_ICAO":"KPHX","APT1_NAME":"Phoenix Sky Harbor Intl","APT1_LAANC":1,"AIRSPACE_1":"B","REGION":"Western"}},{"type":"Feature","id":336090,"geometry":{"type":"Polygon","coordinates":[[[-112.075013561747,33.4500053388486],[-112.075013561747,33.458338674144],[-112.066680227452,33.458338674144],[-112.066680227452,33.4500053388486],[-112.075013561747,33.4500053388486]]]},"properties":{"OBJECTID":336090,"CEILING":100,"UNIT":"Feet","MAP_EFF":"8/6/2026","LAST_EDIT":"5/8/2017","LATITUDE":33.454172009999994,"LONGITUDE":-112.07084689,"APT1_FAAID":"PHX","APT1_ICAO":"KPHX","APT1_NAME":"Phoenix Sky Harbor Intl","APT1_LAANC":1,"AIRSPACE_1":"B","REGION":"Western"}},{"type":"Feature","id":43805,"geometry":{"type":"Polygon","coordinates":[[[-112.000013547089,33.4500053388486],[-112.000013547089,33.458338674144],[-111.991680211794,33.458338674144],[-111.991680211794,33.4500053388486],[-112.000013547089,33.4500053388486]]]},"properties":{"OBJECTID":43805,"CEILING":100,"UNIT":"Feet","MAP_EFF":"8/6/2026","LAST_EDIT":"5/8/2017","LATITUDE":33.454172009999994,"LONGITUDE":-111.99584688,"APT1_FAAID":"PHX","APT1_ICAO":"KPHX","APT1_NAME":"Phoenix Sky Harbor Intl","APT1_LAANC":1,"AIRSPACE_1":"B","REGION":"Western"}},{"type":"Feature","id":43688,"geometry":{"type":"Polygon","coordinates":[[[-112.041680221566,33.4416720035533],[-112.041680221566,33.4500053388486],[-112.033346887271,33.4500053388486],[-112.033346887271,33.4416720035533],[-112.041680221566,33.4416720035533]]]},"properties":{"OBJECTID":43688,"CEILING":0,"UNIT":"Feet","MAP_EFF":"8/6/2026","LAST_EDIT":"5/8/2017","LATITUDE":33.44583867,"LONGITUDE":-112.03751355,"APT1_FAAID":"PHX","APT1_ICAO":"KPHX","APT1_NAME":"Phoenix Sky Harbor Intl","APT1_LAANC":1,"AIRSPACE_1":"B","REGION":"Western"}},{"type":"Feature","id":335973,"geometry":{"type":"Polygon","coordinates":[[[-112.058346892157,33.4000053290765],[-112.058346892157,33.4083386643719],[-112.050013556861,33.4083386643719],[-112.050013556861,33.4000053290765],[-112.058346892157,33.4000053290765]]]},"properties":{"OBJECTID":335973,"CEILING":100,"UNIT":"Feet","MAP_EFF":"8/6/2026","LAST_EDIT":"5/8/2017","LATITUDE":33.404172,"LONGITUDE":-112.05418022,"APT1_FAAID":"PHX","APT1_ICAO":"KPHX","APT1_NAME":"Phoenix Sky Harbor Intl","APT1_LAANC":1,"AIRSPACE_1":"B","REGION":"Western"}},{"type":"Feature","id":43559,"geometry":{"type":"Polygon","coordinates":[[[-112.083346897043,33.4333386692579],[-112.083346897043,33.4416720035533],[-112.075013561747,33.4416720035533],[-112.075013561747,33.4333386692579],[-112.083346897043,33.4333386692579]]]},"properties":{"OBJECTID":43559,"CEILING":100,"UNIT":"Feet","MAP_EFF":"8/6/2026","LAST_EDIT":"5/8/2017","LATITUDE":33.43750534,"LONGITUDE":-112.07918022999999,"APT1_FAAID":"PHX","APT1_ICAO":"KPHX","APT1_NAME":"Phoenix Sky Harbor Intl","APT1_LAANC":1,"AIRSPACE_1":"B","REGION":"Western"}},{"type":"Feature","id":336073,"geometry":{"type":"Polygon","coordinates":[[[-112.008346882385,33.4416720035533],[-112.008346882385,33.4500053388486],[-112.000013547089,33.4500053388486],[-112.000013547089,33.4416720035533],[-112.008346882385,33.4416720035533]]]},"properties":{"OBJECTID":336073,"CEILING":0,"UNIT":"Feet","MAP_EFF":"8/6/2026","LAST_EDIT":"5/8/2017","LATITUDE":33.44583867,"LONGITUDE":-112.00418020999999,"APT1_FAAID":"PHX","APT1_ICAO":"KPHX","APT1_NAME":"Phoenix Sky Harbor Intl","APT1_LAANC":1,"AIRSPACE_1":"B","REGION":"Western"}},{"type":"Feature","id":43450,"geometry":{"type":"Polygon","coordinates":[[[-112.025013551975,33.4250053339626],[-112.025013551975,33.4333386692579],[-112.01668021668,33.4333386692579],[-112.01668021668,33.4250053339626],[-112.025013551975,33.4250053339626]]]},"properties":{"OBJECTID":43450,"CEILING":0,"UNIT":"Feet","MAP_EFF":"8/6/2026","LAST_EDIT":"5/8/2017","LATITUDE":33.429172,"LONGITUDE":-112.02084688,"APT1_FAAID":"PHX","APT1_ICAO":"KPHX","APT1_NAME":"Phoenix Sky Harbor Intl","APT1_LAANC":0,"AIRSPACE_1":"B","REGION":"Western"}},{"type":"Feature","id":43012,"geometry":{"type":"Polygon","coordinates":[[[-112.100013566633,33.3916719937812],[-112.100013566633,33.4000053290765],[-112.091680232338,33.4000053290765],[-112.091680232338,33.3916719937812],[-112.100013566633,33.3916719937812]]]},"properties":{"OBJECTID":43012,"CEILING":100,"UNIT":"Feet","MAP_EFF":"8/6/2026","LAST_EDIT":"5/8/2017","LATITUDE":33.39583866,"LONGITUDE":-112.0958469,"APT1_FAAID":"PHX","APT1_ICAO":"KPHX","APT1_NAME":"Phoenix Sky Harbor Intl","APT1_LAANC":1,"AIRSPACE_1":"B","REGION":"Western"}},{"type":"Feature","id":43436,"geometry":{"type":"Polygon","coordinates":[[[-112.091680232338,33.4250053339626],[-112.091680232338,33.4333386692579],[-112.083346897043,33.4333386692579],[-112.083346897043,33.4250053339626],[-112.091680232338,33.4250053339626]]]},"properties":{"OBJECTID":43436,"CEILING":100,"UNIT":"Feet","MAP_EFF":"8/6/2026","LAST_EDIT":"5/8/2017","LATITUDE":33.429172,"LONGITUDE":-112.08751356,"APT1_FAAID":"PHX","APT1_ICAO":"KPHX","APT1_NAME":"Phoenix Sky Harbor Intl","APT1_LAANC":1,"AIRSPACE_1":"B","REGION":"Western"}},{"type":"Feature","id":44212,"geometry":{"type":"Polygon","coordinates":[[[-112.100013566633,33.48333867903],[-112.100013566633,33.4916720143253],[-112.091680232338,33.4916720143253],[-112.091680232338,33.48333867903],[-112.100013566633,33.48333867903]]]},"properties":{"OBJECTID":44212,"CEILING":300,"UNIT":"Feet","MAP_EFF":"8/6/2026","LAST_EDIT":"10/27/2017","LATITUDE":33.48750535,"LONGITUDE":-112.0958469,"APT1_FAAID":"PHX","APT1_ICAO":"KPHX","APT1_NAME":"Phoenix Sky Harbor Intl","APT1_LAANC":1,"AIRSPACE_1":"B","REGION":"Western"}},{"type":"Feature","id":43679,"geometry":{"type":"Polygon","coordinates":[[[-112.075013561747,33.4416720035533],[-112.075013561747,33.4500053388486],[-112.066680227452,33.4500053388486],[-112.066680227452,33.4416720035533],[-112.075013561747,33.4416720035533]]]},"properties":{"OBJECTID":43679,"CEILING":100,"UNIT":"Feet","MAP_EFF":"8/6/2026","LAST_EDIT":"5/8/2017","LATITUDE":33.44583867,"LONGITUDE":-112.07084689,"APT1_FAAID":"PHX","APT1_ICAO":"KPHX","APT1_NAME":"Phoenix Sky Harbor Intl","APT1_LAANC":1,"AIRSPACE_1":"B","REGION":"Western"}},{"type":"Feature","id":335956,"geometry":{"type":"Polygon","coordinates":[[[-112.075013561747,33.3916719937812],[-112.075013561747,33.4000053290765],[-112.066680227452,33.4000053290765],[-112.066680227452,33.3916719937812],[-112.075013561747,33.3916719937812]]]},"properties":{"OBJECTID":335956,"CEILING":100,"UNIT":"Feet","MAP_EFF":"8/6/2026","LAST_EDIT":"5/8/2017","LATITUDE":33.39583866,"LONGITUDE":-112.07084689,"APT1_FAAID":"PHX","APT1_ICAO":"KPHX","APT1_NAME":"Phoenix Sky Harbor Intl","APT1_LAANC":1,"AIRSPACE_1":"B","REGION":"Western"}},{"type":"Feature","id":43324,"geometry":{"type":"Polygon","coordinates":[[[-112.075013561747,33.4166719986673],[-112.075013561747,33.4250053339626],[-112.066680227452,33.4250053339626],[-112.066680227452,33.4166719986673],[-112.075013561747,33.4166719986673]]]},"properties":{"OBJECTID":43324,"CEILING":100,"UNIT":"Feet","MAP_EFF":"8/6/2026","LAST_EDIT":"5/8/2017","LATITUDE":33.42083867,"LONGITUDE":-112.07084689,"APT1_FAAID":"PHX","APT1_ICAO":"KPHX","APT1_NAME":"Phoenix Sky Harbor Intl","APT1_LAANC":1,"AIRSPACE_1":"B","REGION":"Western"}},{"type":"Feature","id":44114,"geometry":{"type":"Polygon","coordinates":[[[-112.058346892157,33.4750053437347],[-112.058346892157,33.48333867903],[-112.050013556861,33.48333867903],[-112.050013556861,33.4750053437347],[-112.058346892157,33.4750053437347]]]},"properties":{"OBJECTID":44114,"CEILING":100,"UNIT":"Feet","MAP_EFF":"8/6/2026","LAST_EDIT":"5/8/2017","LATITUDE":33.47917201,"LONGITUDE":-112.05418022,"APT1_FAAID":"PHX","APT1_ICAO":"KPHX","APT1_NAME":"Phoenix Sky Harbor Intl","APT1_LAANC":1,"AIRSPACE_1":"B","REGION":"Western"}},{"type":"Feature","id":43573,"geometry":{"type":"Polygon","coordinates":[[[-112.008346882385,33.4333386692579],[-112.008346882385,33.4416720035533],[-112.000013547089,33.4416720035533],[-112.000013547089,33.4333386692579],[-112.008346882385,33.4333386692579]]]},"properties":{"OBJECTID":43573,"CEILING":0,"UNIT":"Feet","MAP_EFF":"8/6/2026","LAST_EDIT":"5/8/2017","LATITUDE":33.43750534,"LONGITUDE":-112.00418020999999,"APT1_FAAID":"PHX","APT1_ICAO":"KPHX","APT1_NAME":"Phoenix Sky Harbor Intl","APT1_LAANC":0,"AIRSPACE_1":"B","REGION":"Western"}},{"type":"Feature","id":43330,"geometry":{"type":"Polygon","coordinates":[[[-112.01668021668,33.4166719986673],[-112.01668021668,33.4250053339626],[-112.008346882385,33.4250053339626],[-112.008346882385,33.4166719986673],[-112.01668021668,33.4166719986673]]]},"properties":{"OBJECTID":43330,"CEILING":0,"UNIT":"Feet","MAP_EFF":"8/6/2026","LAST_EDIT":"5/8/2017","LATITUDE":33.42083867,"LONGITUDE":-112.01251355000001,"APT1_FAAID":"PHX","APT1_ICAO":"KPHX","APT1_NAME":"Phoenix Sky Harbor Intl","APT1_LAANC":1,"AIRSPACE_1":"B","REGION":"Western"}},{"type":"Feature","id":43802,"geometry":{"type":"Polygon","coordinates":[[[-112.033346887271,33.4500053388486],[-112.033346887271,33.458338674144],[-112.025013551975,33.458338674144],[-112.025013551975,33.4500053388486],[-112.033346887271,33.4500053388486]]]},"properties":{"OBJECTID":43802,"CEILING":100,"UNIT":"Feet","MAP_EFF":"8/6/2026","LAST_EDIT":"5/8/2017","LATITUDE":33.454172009999994,"LONGITUDE":-112.02918022,"APT1_FAAID":"PHX","APT1_ICAO":"KPHX","APT1_NAME":"Phoenix Sky Harbor Intl","APT1_LAANC":1,"AIRSPACE_1":"B","REGION":"Western"}},{"type":"Feature","id":43691,"geometry":{"type":"Polygon","coordinates":[[[-112.01668021668,33.4416720035533],[-112.01668021668,33.4500053388486],[-112.008346882385,33.4500053388486],[-112.008346882385,33.4416720035533],[-112.01668021668,33.4416720035533]]]},"properties":{"OBJECTID":43691,"CEILING":0,"UNIT":"Feet","MAP_EFF":"8/6/2026","LAST_EDIT":"5/8/2017","LATITUDE":33.44583867,"LONGITUDE":-112.01251355000001,"APT1_FAAID":"PHX","APT1_ICAO":"KPHX","APT1_NAME":"Phoenix Sky Harbor Intl","APT1_LAANC":1,"AIRSPACE_1":"B","REGION":"Western"}},{"type":"Feature","id":43015,"geometry":{"type":"Polygon","coordinates":[[[-112.066680227452,33.3916719937812],[-112.066680227452,33.4000053290765],[-112.058346892157,33.4000053290765],[-112.058346892157,33.3916719937812],[-112.066680227452,33.3916719937812]]]},"properties":{"OBJECTID":43015,"CEILING":100,"UNIT":"Feet","MAP_EFF":"8/6/2026","LAST_EDIT":"8/27/2020","LATITUDE":33.39583866,"LONGITUDE":-112.06251356,"APT1_FAAID":"PHX","APT1_ICAO":"KPHX","APT1_NAME":"Phoenix Sky Harbor Intl","APT1_LAANC":1,"AIRSPACE_1":"B","REGION":"Western"}},{"type":"Feature","id":43213,"geometry":{"type":"Polygon","coordinates":[[[-112.025013551975,33.4083386643719],[-112.025013551975,33.4166719986673],[-112.01668021668,33.4166719986673],[-112.01668021668,33.4083386643719],[-112.025013551975,33.4083386643719]]]},"properties":{"OBJECTID":43213,"CEILING":100,"UNIT":"Feet","MAP_EFF":"8/6/2026","LAST_EDIT":"5/8/2017","LATITUDE":33.41250533,"LONGITUDE":-112.02084688,"APT1_FAAID":"PHX","APT1_ICAO":"KPHX","APT1_NAME":"Phoenix Sky Harbor Intl","APT1_LAANC":1,"AIRSPACE_1":"B","REGION":"Western"}},{"type":"Feature","id":43107,"geometry":{"type":"Polygon","coordinates":[[[-112.083346897043,33.4000053290765],[-112.083346897043,33.4083386643719],[-112.075013561747,33.4083386643719],[-112.075013561747,33.4000053290765],[-112.083346897043,33.4000053290765]]]},"properties":{"OBJECTID":43107,"CEILING":100,"UNIT":"Feet","MAP_EFF":"8/6/2026","LAST_EDIT":"5/8/2017","LATITUDE":33.404172,"LONGITUDE":-112.07918022999999,"APT1_FAAID":"PHX","APT1_ICAO":"KPHX","APT1_NAME":"Phoenix Sky Harbor Intl","APT1_LAANC":1,"AIRSPACE_1":"B","REGION":"Western"}},{"type":"Feature","id":336033,"geometry":{"type":"Polygon","coordinates":[[[-112.01668021668,33.4250053339626],[-112.01668021668,33.4333386692579],[-112.008346882385,33.4333386692579],[-112.008346882385,33.4250053339626],[-112.01668021668,33.4250053339626]]]},"properties":{"OBJECTID":336033,"CEILING":0,"UNIT":"Feet","MAP_EFF":"8/6/2026","LAST_EDIT":"5/8/2017","LATITUDE":33.429172,"LONGITUDE":-112.01251355000001,"APT1_FAAID":"PHX","APT1_ICAO":"KPHX","APT1_NAME":"Phoenix Sky Harbor Intl","APT1_LAANC":0,"AIRSPACE_1":"B","REGION":"Western"}},{"type":"Feature","id":43207,"geometry":{"type":"Polygon","coordinates":[[[-112.083346897043,33.4083386643719],[-112.083346897043,33.4166719986673],[-112.075013561747,33.4166719986673],[-112.075013561747,33.4083386643719],[-112.083346897043,33.4083386643719]]]},"properties":{"OBJECTID":43207,"CEILING":100,"UNIT":"Feet","MAP_EFF":"8/6/2026","LAST_EDIT":"5/8/2017","LATITUDE":33.41250533,"LONGITUDE":-112.07918022999999,"APT1_FAAID":"PHX","APT1_ICAO":"KPHX","APT1_NAME":"Phoenix Sky Harbor Intl","APT1_LAANC":1,"AIRSPACE_1":"B","REGION":"Western"}},{"type":"Feature","id":336053,"geometry":{"type":"Polygon","coordinates":[[[-112.058346892157,33.4333386692579],[-112.058346892157,33.4416720035533],[-112.050013556861,33.4416720035533],[-112.050013556861,33.4333386692579],[-112.058346892157,33.4333386692579]]]},"properties":{"OBJECTID":336053,"CEILING":0,"UNIT":"Feet","MAP_EFF":"8/6/2026","LAST_EDIT":"5/8/2017","LATITUDE":33.43750534,"LONGITUDE":-112.05418022,"APT1_FAAID":"PHX","APT1_ICAO":"KPHX","APT1_NAME":"Phoenix Sky Harbor Intl","APT1_LAANC":1,"AIRSPACE_1":"B","REGION":"Western"}},{"type":"Feature","id":43911,"geometry":{"type":"Polygon","coordinates":[[[-112.000013547089,33.458338674144],[-112.000013547089,33.4666720094393],[-111.991680211794,33.4666720094393],[-111.991680211794,33.458338674144],[-112.000013547089,33.458338674144]]]},"properties":{"OBJECTID":43911,"CEILING":100,"UNIT":"Feet","MAP_EFF":"8/6/2026","LAST_EDIT":"5/8/2017","LATITUDE":33.46250534,"LONGITUDE":-111.99584688,"APT1_FAAID":"PHX","APT1_ICAO":"KPHX","APT1_NAME":"Phoenix Sky Harbor Intl","APT1_LAANC":1,"AIRSPACE_1":"B","REGION":"Western"}},{"type":"Feature","id":44011,"geometry":{"type":"Polygon","coordinates":[[[-112.083346897043,33.4666720094393],[-112.083346897043,33.4750053437347],[-112.075013561747,33.4750053437347],[-112.075013561747,33.4666720094393],[-112.083346897043,33.4666720094393]]]},"properties":{"OBJECTID":44011,"CEILING":200,"UNIT":"Feet","MAP_EFF":"8/6/2026","LAST_EDIT":"5/8/2017","LATITUDE":33.47083868,"LONGITUDE":-112.07918022999999,"APT1_FAAID":"PHX","APT1_ICAO":"KPHX","APT1_NAME":"Phoenix Sky Harbor Intl","APT1_LAANC":1,"AIRSPACE_1":"B","REGION":"Western"}},{"type":"Feature","id":336110,"geometry":{"type":"Polygon","coordinates":[[[-112.01668021668,33.458338674144],[-112.01668021668,33.4666720094393],[-112.008346882385,33.4666720094393],[-112.008346882385,33.458338674144],[-112.01668021668,33.458338674144]]]},"properties":{"OBJECTID":336110,"CEILING":100,"UNIT":"Feet","MAP_EFF":"8/6/2026","LAST_EDIT":"5/8/2017","LATITUDE":33.46250534,"LONGITUDE":-112.01251355000001,"APT1_FAAID":"PHX","APT1_ICAO":"KPHX","APT1_NAME":"Phoenix Sky Harbor Intl","APT1_LAANC":1,"AIRSPACE_1":"B","REGION":"Western"}},{"type":"Feature","id":43448,"geometry":{"type":"Polygon","coordinates":[[[-112.041680221566,33.4250053339626],[-112.041680221566,33.4333386692579],[-112.033346887271,33.4333386692579],[-112.033346887271,33.4250053339626],[-112.041680221566,33.4250053339626]]]},"properties":{"OBJECTID":43448,"CEILING":0,"UNIT":"Feet","MAP_EFF":"8/6/2026","LAST_EDIT":"5/8/2017","LATITUDE":33.429172,"LONGITUDE":-112.03751355,"APT1_FAAID":"PHX","APT1_ICAO":"KPHX","APT1_NAME":"Phoenix Sky Harbor Intl","APT1_LAANC":1,"AIRSPACE_1":"B","REGION":"Western"}},{"type":"Feature","id":44112,"geometry":{"type":"Polygon","coordinates":[[[-112.075013561747,33.4750053437347],[-112.075013561747,33.48333867903],[-112.066680227452,33.48333867903],[-112.066680227452,33.4750053437347],[-112.075013561747,33.4750053437347]]]},"properties":{"OBJECTID":44112,"CEILING":200,"UNIT":"Feet","MAP_EFF":"8/6/2026","LAST_EDIT":"5/8/2017","LATITUDE":33.47917201,"LONGITUDE":-112.07084689,"APT1_FAAID":"PHX","APT1_ICAO":"KPHX","APT1_NAME":"Phoenix Sky Harbor Intl","APT1_LAANC":1,"AIRSPACE_1":"B","REGION":"Western"}},{"type":"Feature","id":43803,"geometry":{"type":"Polygon","coordinates":[[[-112.025013551975,33.4500053388486],[-112.025013551975,33.458338674144],[-112.01668021668,33.458338674144],[-112.01668021668,33.4500053388486],[-112.025013551975,33.4500053388486]]]},"properties":{"OBJECTID":43803,"CEILING":100,"UNIT":"Feet","MAP_EFF":"8/6/2026","LAST_EDIT":"5/8/2017","LATITUDE":33.454172009999994,"LONGITUDE":-112.02084688,"APT1_FAAID":"PHX","APT1_ICAO":"KPHX","APT1_NAME":"Phoenix Sky Harbor Intl","APT1_LAANC":1,"AIRSPACE_1":"B","REGION":"Western"}},{"type":"Feature","id":336071,"geometry":{"type":"Polygon","coordinates":[[[-112.091680232338,33.4416720035533],[-112.091680232338,33.4500053388486],[-112.083346897043,33.4500053388486],[-112.083346897043,33.4416720035533],[-112.091680232338,33.4416720035533]]]},"properties":{"OBJECTID":336071,"CEILING":100,"UNIT":"Feet","MAP_EFF":"8/6/2026","LAST_EDIT":"5/8/2017","LATITUDE":33.44583867,"LONGITUDE":-112.08751356,"APT1_FAAID":"PHX","APT1_ICAO":"KPHX","APT1_NAME":"Phoenix Sky Harbor Intl","APT1_LAANC":1,"AIRSPACE_1":"B","REGION":"Western"}},{"type":"Feature","id":43903,"geometry":{"type":"Polygon","coordinates":[[[-112.083346897043,33.458338674144],[-112.083346897043,33.4666720094393],[-112.075013561747,33.4666720094393],[-112.075013561747,33.458338674144],[-112.083346897043,33.458338674144]]]},"properties":{"OBJECTID":43903,"CEILING":100,"UNIT":"Feet","MAP_EFF":"8/6/2026","LAST_EDIT":"5/8/2017","LATITUDE":33.46250534,"LONGITUDE":-112.07918022999999,"APT1_FAAID":"PHX","APT1_ICAO":"KPHX","APT1_NAME":"Phoenix Sky Harbor Intl","APT1_LAANC":1,"AIRSPACE_1":"B","REGION":"Western"}},{"type":"Feature","id":43216,"geometry":{"type":"Polygon","coordinates":[[[-112.000013547089,33.4083386643719],[-112.000013547089,33.4166719986673],[-111.991680211794,33.4166719986673],[-111.991680211794,33.4083386643719],[-112.000013547089,33.4083386643719]]]},"properties":{"OBJECTID":43216,"CEILING":100,"UNIT":"Feet","MAP_EFF":"8/6/2026","LAST_EDIT":"5/8/2017","LATITUDE":33.41250533,"LONGITUDE":-111.99584688,"APT1_FAAID":"PHX","APT1_ICAO":"KPHX","APT1_NAME":"Phoenix Sky Harbor Intl","APT1_LAANC":1,"AIRSPACE_1":"B","REGION":"Western"}},{"type":"Feature","id":43557,"geometry":{"type":"Polygon","coordinates":[[[-112.100013566633,33.4333386692579],[-112.100013566633,33.4416720035533],[-112.091680232338,33.4416720035533],[-112.091680232338,33.4333386692579],[-112.100013566633,33.4333386692579]]]},"properties":{"OBJECTID":43557,"CEILING":100,"UNIT":"Feet","MAP_EFF":"8/6/2026","LAST_EDIT":"5/8/2017","LATITUDE":33.43750534,"LONGITUDE":-112.0958469,"APT1_FAAID":"PHX","APT1_ICAO":"KPHX","APT1_NAME":"Phoenix Sky Harbor Intl","APT1_LAANC":1,"AIRSPACE_1":"B","REGION":"Western"}},{"type":"Feature","id":43016,"geometry":{"type":"Polygon","coordinates":[[[-112.058346892157,33.3916719937812],[-112.058346892157,33.4000053290765],[-112.050013556861,33.4000053290765],[-112.050013556861,33.3916719937812],[-112.058346892157,33.3916719937812]]]},"properties":{"OBJECTID":43016,"CEILING":100,"UNIT":"Feet","MAP_EFF":"8/6/2026","LAST_EDIT":"8/27/2020","LATITUDE":33.39583866,"LONGITUDE":-112.05418022,"APT1_FAAID":"PHX","APT1_ICAO":"KPHX","APT1_NAME":"Phoenix Sky Harbor Intl","APT1_LAANC":1,"AIRSPACE_1":"B","REGION":"Western"}},{"type":"Feature","id":43208,"geometry":{"type":"Polygon","coordinates":[[[-112.075013561747,33.4083386643719],[-112.075013561747,33.4166719986673],[-112.066680227452,33.4166719986673],[-112.066680227452,33.4083386643719],[-112.075013561747,33.4083386643719]]]},"properties":{"OBJECTID":43208,"CEILING":100,"UNIT":"Feet","MAP_EFF":"8/6/2026","LAST_EDIT":"5/8/2017","LATITUDE":33.41250533,"LONGITUDE":-112.07084689,"APT1_FAAID":"PHX","APT1_ICAO":"KPHX","APT1_NAME":"Phoenix Sky Harbor Intl","APT1_LAANC":1,"AIRSPACE_1":"B","REGION":"Western"}},{"type":"Feature","id":43110,"geometry":{"type":"Polygon","coordinates":[[[-112.050013556861,33.4000053290765],[-112.050013556861,33.4083386643719],[-112.041680221566,33.4083386643719],[-112.041680221566,33.4000053290765],[-112.050013556861,33.4000053290765]]]},"properties":{"OBJECTID":43110,"CEILING":100,"UNIT":"Feet","MAP_EFF":"8/6/2026","LAST_EDIT":"5/8/2017","LATITUDE":33.404172,"LONGITUDE":-112.04584688999999,"APT1_FAAID":"PHX","APT1_ICAO":"KPHX","APT1_NAME":"Phoenix Sky Harbor Intl","APT1_LAANC":1,"AIRSPACE_1":"B","REGION":"Western"}},{"type":"Feature","id":43797,"geometry":{"type":"Polygon","coordinates":[[[-112.083346897043,33.4500053388486],[-112.083346897043,33.458338674144],[-112.075013561747,33.458338674144],[-112.075013561747,33.4500053388486],[-112.083346897043,33.4500053388486]]]},"properties":{"OBJECTID":43797,"CEILING":100,"UNIT":"Feet","MAP_EFF":"8/6/2026","LAST_EDIT":"5/8/2017","LATITUDE":33.454172009999994,"LONGITUDE":-112.07918022999999,"APT1_FAAID":"PHX","APT1_ICAO":"KPHX","APT1_NAME":"Phoenix Sky Harbor Intl","APT1_LAANC":1,"AIRSPACE_1":"B","REGION":"Western"}},{"type":"Feature","id":43906,"geometry":{"type":"Polygon","coordinates":[[[-112.050013556861,33.458338674144],[-112.050013556861,33.4666720094393],[-112.041680221566,33.4666720094393],[-112.041680221566,33.458338674144],[-112.050013556861,33.458338674144]]]},"properties":{"OBJECTID":43906,"CEILING":100,"UNIT":"Feet","MAP_EFF":"8/6/2026","LAST_EDIT":"5/8/2017","LATITUDE":33.46250534,"LONGITUDE":-112.04584688999999,"APT1_FAAID":"PHX","APT1_ICAO":"KPHX","APT1_NAME":"Phoenix Sky Harbor Intl","APT1_LAANC":1,"AIRSPACE_1":"B","REGION":"Western"}},{"type":"Feature","id":43322,"geometry":{"type":"Polygon","coordinates":[[[-112.091680232338,33.4166719986673],[-112.091680232338,33.4250053339626],[-112.083346897043,33.4250053339626],[-112.083346897043,33.4166719986673],[-112.091680232338,33.4166719986673]]]},"properties":{"OBJECTID":43322,"CEILING":100,"UNIT":"Feet","MAP_EFF":"8/6/2026","LAST_EDIT":"5/8/2017","LATITUDE":33.42083867,"LONGITUDE":-112.08751356,"APT1_FAAID":"PHX","APT1_ICAO":"KPHX","APT1_NAME":"Phoenix Sky Harbor Intl","APT1_LAANC":1,"AIRSPACE_1":"B","REGION":"Western"}},{"type":"Feature","id":43571,"geometry":{"type":"Polygon","coordinates":[[[-112.025013551975,33.4333386692579],[-112.025013551975,33.4416720035533],[-112.01668021668,33.4416720035533],[-112.01668021668,33.4333386692579],[-112.025013551975,33.4333386692579]]]},"properties":{"OBJECTID":43571,"CEILING":0,"UNIT":"Feet","MAP_EFF":"8/6/2026","LAST_EDIT":"5/8/2017","LATITUDE":33.43750534,"LONGITUDE":-112.02084688,"APT1_FAAID":"PHX","APT1_ICAO":"KPHX","APT1_NAME":"Phoenix Sky Harbor Intl","APT1_LAANC":0,"AIRSPACE_1":"B","REGION":"Western"}},{"type":"Feature","id":43677,"geometry":{"type":"Polygon","coordinates":[[[-112.100013566633,33.4416720035533],[-112.100013566633,33.4500053388486],[-112.091680232338,33.4500053388486],[-112.091680232338,33.4416720035533],[-112.100013566633,33.4416720035533]]]},"properties":{"OBJECTID":43677,"CEILING":100,"UNIT":"Feet","MAP_EFF":"8/6/2026","LAST_EDIT":"5/8/2017","LATITUDE":33.44583867,"LONGITUDE":-112.0958469,"APT1_FAAID":"PHX","APT1_ICAO":"KPHX","APT1_NAME":"Phoenix Sky Harbor Intl","APT1_LAANC":1,"AIRSPACE_1":"B","REGION":"Western"}},{"type":"Feature","id":44012,"geometry":{"type":"Polygon","coordinates":[[[-112.066680227452,33.4666720094393],[-112.066680227452,33.4750053437347],[-112.058346892157,33.4750053437347],[-112.058346892157,33.4666720094393],[-112.066680227452,33.4666720094393]]]},"properties":{"OBJECTID":44012,"CEILING":100,"UNIT":"Feet","MAP_EFF":"8/6/2026","LAST_EDIT":"5/8/2017","LATITUDE":33.47083868,"LONGITUDE":-112.06251356,"APT1_FAAID":"PHX","APT1_ICAO":"KPHX","APT1_NAME":"Phoenix Sky Harbor Intl","APT1_LAANC":1,"AIRSPACE_1":"B","REGION":"Western"}},{"type":"Feature","id":336011,"geometry":{"type":"Polygon","coordinates":[[[-112.066680227452,33.4166719986673],[-112.066680227452,33.4250053339626],[-112.058346892157,33.4250053339626],[-112.058346892157,33.4166719986673],[-112.066680227452,33.4166719986673]]]},"properties":{"OBJECTID":336011,"CEILING":0,"UNIT":"Feet","MAP_EFF":"8/6/2026","LAST_EDIT":"5/8/2017","LATITUDE":33.42083867,"LONGITUDE":-112.06251356,"APT1_FAAID":"PHX","APT1_ICAO":"KPHX","APT1_NAME":"Phoenix Sky Harbor Intl","APT1_LAANC":1,"AIRSPACE_1":"B","REGION":"Western"}},{"type":"Feature","id":43328,"geometry":{"type":"Polygon","coordinates":[[[-112.033346887271,33.4166719986673],[-112.033346887271,33.4250053339626],[-112.025013551975,33.4250053339626],[-112.025013551975,33.4166719986673],[-112.033346887271,33.4166719986673]]]},"properties":{"OBJECTID":43328,"CEILING":0,"UNIT":"Feet","MAP_EFF":"8/6/2026","LAST_EDIT":"5/8/2017","LATITUDE":33.42083867,"LONGITUDE":-112.02918022,"APT1_FAAID":"PHX","APT1_ICAO":"KPHX","APT1_NAME":"Phoenix Sky Harbor Intl","APT1_LAANC":1,"AIRSPACE_1":"B","REGION":"Western"}},{"type":"Feature","id":336091,"geometry":{"type":"Polygon","coordinates":[[[-112.008346882385,33.4500053388486],[-112.008346882385,33.458338674144],[-112.000013547089,33.458338674144],[-112.000013547089,33.4500053388486],[-112.008346882385,33.4500053388486]]]},"properties":{"OBJECTID":336091,"CEILING":100,"UNIT":"Feet","MAP_EFF":"8/6/2026","LAST_EDIT":"5/8/2017","LATITUDE":33.454172009999994,"LONGITUDE":-112.00418020999999,"APT1_FAAID":"PHX","APT1_ICAO":"KPHX","APT1_NAME":"Phoenix Sky Harbor Intl","APT1_LAANC":1,"AIRSPACE_1":"B","REGION":"Western"}},{"type":"Feature","id":43445,"geometry":{"type":"Polygon","coordinates":[[[-112.066680227452,33.4250053339626],[-112.066680227452,33.4333386692579],[-112.058346892157,33.4333386692579],[-112.058346892157,33.4250053339626],[-112.066680227452,33.4250053339626]]]},"properties":{"OBJECTID":43445,"CEILING":0,"UNIT":"Feet","MAP_EFF":"8/6/2026","LAST_EDIT":"5/8/2017","LATITUDE":33.429172,"LONGITUDE":-112.06251356,"APT1_FAAID":"PHX","APT1_ICAO":"KPHX","APT1_NAME":"Phoenix Sky Harbor Intl","APT1_LAANC":1,"AIRSPACE_1":"B","REGION":"Western"}},{"type":"Feature","id":44109,"geometry":{"type":"Polygon","coordinates":[[[-112.100013566633,33.4750053437347],[-112.100013566633,33.48333867903],[-112.091680232338,33.48333867903],[-112.091680232338,33.4750053437347],[-112.100013566633,33.4750053437347]]]},"properties":{"OBJECTID":44109,"CEILING":300,"UNIT":"Feet","MAP_EFF":"8/6/2026","LAST_EDIT":"10/27/2017","LATITUDE":33.47917201,"LONGITUDE":-112.0958469,"APT1_FAAID":"PHX","APT1_ICAO":"KPHX","APT1_NAME":"Phoenix Sky Harbor Intl","APT1_LAANC":1,"AIRSPACE_1":"B","REGION":"Western"}},{"type":"Feature","id":43568,"geometry":{"type":"Polygon","coordinates":[[[-112.050013556861,33.4333386692579],[-112.050013556861,33.4416720035533],[-112.041680221566,33.4416720035533],[-112.041680221566,33.4333386692579],[-112.050013556861,33.4333386692579]]]},"properties":{"OBJECTID":43568,"CEILING":0,"UNIT":"Feet","MAP_EFF":"8/6/2026","LAST_EDIT":"5/8/2017","LATITUDE":33.43750534,"LONGITUDE":-112.04584688999999,"APT1_FAAID":"PHX","APT1_ICAO":"KPHX","APT1_NAME":"Phoenix Sky Harbor Intl","APT1_LAANC":1,"AIRSPACE_1":"B","REGION":"Western"}},{"type":"Feature","id":43013,"geometry":{"type":"Polygon","coordinates":[[[-112.091680232338,33.3916719937812],[-112.091680232338,33.4000053290765],[-112.083346897043,33.4000053290765],[-112.083346897043,33.3916719937812],[-112.091680232338,33.3916719937812]]]},"properties":{"OBJECTID":43013,"CEILING":100,"UNIT":"Feet","MAP_EFF":"8/6/2026","LAST_EDIT":"5/8/2017","LATITUDE":33.39583866,"LONGITUDE":-112.08751356,"APT1_FAAID":"PHX","APT1_ICAO":"KPHX","APT1_NAME":"Phoenix Sky Harbor Intl","APT1_LAANC":1,"AIRSPACE_1":"B","REGION":"Western"}},{"type":"Feature","id":335991,"geometry":{"type":"Polygon","coordinates":[[[-112.041680221566,33.4083386643719],[-112.041680221566,33.4166719986673],[-112.033346887271,33.4166719986673],[-112.033346887271,33.4083386643719],[-112.041680221566,33.4083386643719]]]},"properties":{"OBJECTID":335991,"CEILING":100,"UNIT":"Feet","MAP_EFF":"8/6/2026","LAST_EDIT":"5/8/2017","LATITUDE":33.41250533,"LONGITUDE":-112.03751355,"APT1_FAAID":"PHX","APT1_ICAO":"KPHX","APT1_NAME":"Phoenix Sky Harbor Intl","APT1_LAANC":1,"AIRSPACE_1":"B","REGION":"Western"}},{"type":"Feature","id":43800,"geometry":{"type":"Polygon","coordinates":[[[-112.050013556861,33.4500053388486],[-112.050013556861,33.458338674144],[-112.041680221566,33.458338674144],[-112.041680221566,33.4500053388486],[-112.050013556861,33.4500053388486]]]},"properties":{"OBJECTID":43800,"CEILING":100,"UNIT":"Feet","MAP_EFF":"8/6/2026","LAST_EDIT":"5/8/2017","LATITUDE":33.454172009999994,"LONGITUDE":-112.04584688999999,"APT1_FAAID":"PHX","APT1_ICAO":"KPHX","APT1_NAME":"Phoenix Sky Harbor Intl","APT1_LAANC":1,"AIRSPACE_1":"B","REGION":"Western"}},{"type":"Feature","id":43205,"geometry":{"type":"Polygon","coordinates":[[[-112.100013566633,33.4083386643719],[-112.100013566633,33.4166719986673],[-112.091680232338,33.4166719986673],[-112.091680232338,33.4083386643719],[-112.100013566633,33.4083386643719]]]},"properties":{"OBJECTID":43205,"CEILING":100,"UNIT":"Feet","MAP_EFF":"8/6/2026","LAST_EDIT":"5/8/2017","LATITUDE":33.41250533,"LONGITUDE":-112.0958469,"APT1_FAAID":"PHX","APT1_ICAO":"KPHX","APT1_NAME":"Phoenix Sky Harbor Intl","APT1_LAANC":1,"AIRSPACE_1":"B","REGION":"Western"}},{"type":"Feature","id":43451,"geometry":{"type":"Polygon","coordinates":[[[-112.008346882385,33.4250053339626],[-112.008346882385,33.4333386692579],[-112.000013547089,33.4333386692579],[-112.000013547089,33.4250053339626],[-112.008346882385,33.4250053339626]]]},"properties":{"OBJECTID":43451,"CEILING":0,"UNIT":"Feet","MAP_EFF":"8/6/2026","LAST_EDIT":"5/8/2017","LATITUDE":33.429172,"LONGITUDE":-112.00418020999999,"APT1_FAAID":"PHX","APT1_ICAO":"KPHX","APT1_NAME":"Phoenix Sky Harbor Intl","APT1_LAANC":0,"AIRSPACE_1":"B","REGION":"Western"}},{"type":"Feature","id":43909,"geometry":{"type":"Polygon","coordinates":[[[-112.025013551975,33.458338674144],[-112.025013551975,33.4666720094393],[-112.01668021668,33.4666720094393],[-112.01668021668,33.458338674144],[-112.025013551975,33.458338674144]]]},"properties":{"OBJECTID":43909,"CEILING":100,"UNIT":"Feet","MAP_EFF":"8/6/2026","LAST_EDIT":"5/8/2017","LATITUDE":33.46250534,"LONGITUDE":-112.02084688,"APT1_FAAID":"PHX","APT1_ICAO":"KPHX","APT1_NAME":"Phoenix Sky Harbor Intl","APT1_LAANC":1,"AIRSPACE_1":"B","REGION":"Western"}},{"type":"Feature","id":44009,"geometry":{"type":"Polygon","coordinates":[[[-112.100013566633,33.4666720094393],[-112.100013566633,33.4750053437347],[-112.091680232338,33.4750053437347],[-112.091680232338,33.4666720094393],[-112.100013566633,33.4666720094393]]]},"properties":{"OBJECTID":44009,"CEILING":300,"UNIT":"Feet","MAP_EFF":"8/6/2026","LAST_EDIT":"10/27/2017","LATITUDE":33.47083868,"LONGITUDE":-112.0958469,"APT1_FAAID":"PHX","APT1_ICAO":"KPHX","APT1_NAME":"Phoenix Sky Harbor Intl","APT1_LAANC":1,"AIRSPACE_1":"B","REGION":"Western"}},{"type":"Feature","id":43680,"geometry":{"type":"Polygon","coordinates":[[[-112.066680227452,33.4416720035533],[-112.066680227452,33.4500053388486],[-112.058346892157,33.4500053388486],[-112.058346892157,33.4416720035533],[-112.066680227452,33.4416720035533]]]},"properties":{"OBJECTID":43680,"CEILING":0,"UNIT":"Feet","MAP_EFF":"8/6/2026","LAST_EDIT":"5/8/2017","LATITUDE":33.44583867,"LONGITUDE":-112.06251356,"APT1_FAAID":"PHX","APT1_ICAO":"KPHX","APT1_NAME":"Phoenix Sky Harbor Intl","APT1_LAANC":1,"AIRSPACE_1":"B","REGION":"Western"}},{"type":"Feature","id":43325,"geometry":{"type":"Polygon","coordinates":[[[-112.058346892157,33.4166719986673],[-112.058346892157,33.4250053339626],[-112.050013556861,33.4250053339626],[-112.050013556861,33.4166719986673],[-112.058346892157,33.4166719986673]]]},"properties":{"OBJECTID":43325,"CEILING":0,"UNIT":"Feet","MAP_EFF":"8/6/2026","LAST_EDIT":"5/8/2017","LATITUDE":33.42083867,"LONGITUDE":-112.05418022,"APT1_FAAID":"PHX","APT1_ICAO":"KPHX","APT1_NAME":"Phoenix Sky Harbor Intl","APT1_LAANC":1,"AIRSPACE_1":"B","REGION":"Western"}},{"type":"Feature","id":43331,"geometry":{"type":"Polygon","coordinates":[[[-112.008346882385,33.4166719986673],[-112.008346882385,33.4250053339626],[-112.000013547089,33.4250053339626],[-112.000013547089,33.4166719986673],[-112.008346882385,33.4166719986673]]]},"properties":{"OBJECTID":43331,"CEILING":0,"UNIT":"Feet","MAP_EFF":"8/6/2026","LAST_EDIT":"5/8/2017","LATITUDE":33.42083867,"LONGITUDE":-112.00418020999999,"APT1_FAAID":"PHX","APT1_ICAO":"KPHX","APT1_NAME":"Phoenix Sky Harbor Intl","APT1_LAANC":1,"AIRSPACE_1":"B","REGION":"Western"}},{"type":"Feature","id":43574,"geometry":{"type":"Polygon","coordinates":[[[-112.000013547089,33.4333386692579],[-112.000013547089,33.4416720035533],[-111.991680211794,33.4416720035533],[-111.991680211794,33.4333386692579],[-112.000013547089,33.4333386692579]]]},"properties":{"OBJECTID":43574,"CEILING":0,"UNIT":"Feet","MAP_EFF":"8/6/2026","LAST_EDIT":"5/8/2017","LATITUDE":33.43750534,"LONGITUDE":-111.99584688,"APT1_FAAID":"PHX","APT1_ICAO":"KPHX","APT1_NAME":"Phoenix Sky Harbor Intl","APT1_LAANC":0,"AIRSPACE_1":"B","REGION":"Western"}},{"type":"Feature","id":336108,"geometry":{"type":"Polygon","coordinates":[[[-112.075013561747,33.458338674144],[-112.075013561747,33.4666720094393],[-112.066680227452,33.4666720094393],[-112.066680227452,33.458338674144],[-112.075013561747,33.458338674144]]]},"properties":{"OBJECTID":336108,"CEILING":100,"UNIT":"Feet","MAP_EFF":"8/6/2026","LAST_EDIT":"5/8/2017","LATITUDE":33.46250534,"LONGITUDE":-112.07084689,"APT1_FAAID":"PHX","APT1_ICAO":"KPHX","APT1_NAME":"Phoenix Sky Harbor Intl","APT1_LAANC":1,"AIRSPACE_1":"B","REGION":"Western"}},{"type":"Feature","id":44215,"geometry":{"type":"Polygon","coordinates":[[[-112.075013561747,33.48333867903],[-112.075013561747,33.4916720143253],[-112.066680227452,33.4916720143253],[-112.066680227452,33.48333867903],[-112.075013561747,33.48333867903]]]},"properties":{"OBJECTID":44215,"CEILING":300,"UNIT":"Feet","MAP_EFF":"8/6/2026","LAST_EDIT":"10/27/2017","LATITUDE":33.48750535,"LONGITUDE":-112.07084689,"APT1_FAAID":"PHX","APT1_ICAO":"KPHX","APT1_NAME":"Phoenix Sky Harbor Intl","APT1_LAANC":1,"AIRSPACE_1":"B","REGION":"Western"}},{"type":"Feature","id":43801,"geometry":{"type":"Polygon","coordinates":[[[-112.041680221566,33.4500053388486],[-112.041680221566,33.458338674144],[-112.033346887271,33.458338674144],[-112.033346887271,33.4500053388486],[-112.041680221566,33.4500053388486]]]},"properties":{"OBJECTID":43801,"CEILING":100,"UNIT":"Feet","MAP_EFF":"8/6/2026","LAST_EDIT":"5/8/2017","LATITUDE":33.454172009999994,"LONGITUDE":-112.03751355,"APT1_FAAID":"PHX","APT1_ICAO":"KPHX","APT1_NAME":"Phoenix Sky Harbor Intl","APT1_LAANC":1,"AIRSPACE_1":"B","REGION":"Western"}},{"type":"Feature","id":43446,"geometry":{"type":"Polygon","coordinates":[[[-112.058346892157,33.4250053339626],[-112.058346892157,33.4333386692579],[-112.050013556861,33.4333386692579],[-112.050013556861,33.4250053339626],[-112.058346892157,33.4250053339626]]]},"properties":{"OBJECTID":43446,"CEILING":0,"UNIT":"Feet","MAP_EFF":"8/6/2026","LAST_EDIT":"5/8/2017","LATITUDE":33.429172,"LONGITUDE":-112.05418022,"APT1_FAAID":"PHX","APT1_ICAO":"KPHX","APT1_NAME":"Phoenix Sky Harbor Intl","APT1_LAANC":1,"AIRSPACE_1":"B","REGION":"Western"}},{"type":"Feature","id":44110,"geometry":{"type":"Polygon","coordinates":[[[-112.091680232338,33.4750053437347],[-112.091680232338,33.48333867903],[-112.083346897043,33.48333867903],[-112.083346897043,33.4750053437347],[-112.091680232338,33.4750053437347]]]},"properties":{"OBJECTID":44110,"CEILING":300,"UNIT":"Feet","MAP_EFF":"8/6/2026","LAST_EDIT":"10/27/2017","LATITUDE":33.47917201,"LONGITUDE":-112.08751356,"APT1_FAAID":"PHX","APT1_ICAO":"KPHX","APT1_NAME":"Phoenix Sky Harbor Intl","APT1_LAANC":1,"AIRSPACE_1":"B","REGION":"Western"}},{"type":"Feature","id":336180,"geometry":{"type":"Polygon","coordinates":[[[-112.100013566633,33.4916720143253],[-112.100013566633,33.5000053486207],[-112.091680232338,33.5000053486207],[-112.091680232338,33.4916720143253],[-112.100013566633,33.4916720143253]]]},"properties":{"OBJECTID":336180,"CEILING":300,"UNIT":"Feet","MAP_EFF":"8/6/2026","LAST_EDIT":"10/27/2017","LATITUDE":33.495838680000006,"LONGITUDE":-112.0958469,"APT1_FAAID":"PHX","APT1_ICAO":"KPHX","APT1_NAME":"Phoenix Sky Harbor Intl","APT1_LAANC":1,"AIRSPACE_1":"B","REGION":"Western"}},{"type":"Feature","id":43014,"geometry":{"type":"Polygon","coordinates":[[[-112.083346897043,33.3916719937812],[-112.083346897043,33.4000053290765],[-112.075013561747,33.4000053290765],[-112.075013561747,33.3916719937812],[-112.083346897043,33.3916719937812]]]},"properties":{"OBJECTID":43014,"CEILING":100,"UNIT":"Feet","MAP_EFF":"8/6/2026","LAST_EDIT":"5/8/2017","LATITUDE":33.39583866,"LONGITUDE":-112.07918022999999,"APT1_FAAID":"PHX","APT1_ICAO":"KPHX","APT1_NAME":"Phoenix Sky Harbor Intl","APT1_LAANC":1,"AIRSPACE_1":"B","REGION":"Western"}},{"type":"Feature","id":43214,"geometry":{"type":"Polygon","coordinates":[[[-112.01668021668,33.4083386643719],[-112.01668021668,33.4166719986673],[-112.008346882385,33.4166719986673],[-112.008346882385,33.4083386643719],[-112.01668021668,33.4083386643719]]]},"properties":{"OBJECTID":43214,"CEILING":100,"UNIT":"Feet","MAP_EFF":"8/6/2026","LAST_EDIT":"5/8/2017","LATITUDE":33.41250533,"LONGITUDE":-112.01251355000001,"APT1_FAAID":"PHX","APT1_ICAO":"KPHX","APT1_NAME":"Phoenix Sky Harbor Intl","APT1_LAANC":1,"AIRSPACE_1":"B","REGION":"Western"}},{"type":"Feature","id":43901,"geometry":{"type":"Polygon","coordinates":[[[-112.100013566633,33.458338674144],[-112.100013566633,33.4666720094393],[-112.091680232338,33.4666720094393],[-112.091680232338,33.458338674144],[-112.100013566633,33.458338674144]]]},"properties":{"OBJECTID":43901,"CEILING":100,"UNIT":"Feet","MAP_EFF":"8/6/2026","LAST_EDIT":"5/8/2017","LATITUDE":33.46250534,"LONGITUDE":-112.0958469,"APT1_FAAID":"PHX","APT1_ICAO":"KPHX","APT1_NAME":"Phoenix Sky Harbor Intl","APT1_LAANC":1,"AIRSPACE_1":"B","REGION":"Western"}},{"type":"Feature","id":43795,"geometry":{"type":"Polygon","coordinates":[[[-112.100013566633,33.4500053388486],[-112.100013566633,33.458338674144],[-112.091680232338,33.458338674144],[-112.091680232338,33.4500053388486],[-112.100013566633,33.4500053388486]]]},"properties":{"OBJECTID":43795,"CEILING":100,"UNIT":"Feet","MAP_EFF":"8/6/2026","LAST_EDIT":"5/8/2017","LATITUDE":33.454172009999994,"LONGITUDE":-112.0958469,"APT1_FAAID":"PHX","APT1_ICAO":"KPHX","APT1_NAME":"Phoenix Sky Harbor Intl","APT1_LAANC":1,"AIRSPACE_1":"B","REGION":"Western"}},{"type":"Feature","id":43108,"geometry":{"type":"Polygon","coordinates":[[[-112.075013561747,33.4000053290765],[-112.075013561747,33.4083386643719],[-112.066680227452,33.4083386643719],[-112.066680227452,33.4000053290765],[-112.075013561747,33.4000053290765]]]},"properties":{"OBJECTID":43108,"CEILING":100,"UNIT":"Feet","MAP_EFF":"8/6/2026","LAST_EDIT":"5/8/2017","LATITUDE":33.404172,"LONGITUDE":-112.07084689,"APT1_FAAID":"PHX","APT1_ICAO":"KPHX","APT1_NAME":"Phoenix Sky Harbor Intl","APT1_LAANC":1,"AIRSPACE_1":"B","REGION":"Western"}},{"type":"Feature","id":43452,"geometry":{"type":"Polygon","coordinates":[[[-112.000013547089,33.4250053339626],[-112.000013547089,33.4333386692579],[-111.991680211794,33.4333386692579],[-111.991680211794,33.4250053339626],[-112.000013547089,33.4250053339626]]]},"properties":{"OBJECTID":43452,"CEILING":0,"UNIT":"Feet","MAP_EFF":"8/6/2026","LAST_EDIT":"5/8/2017","LATITUDE":33.429172,"LONGITUDE":-111.99584688,"APT1_FAAID":"PHX","APT1_ICAO":"KPHX","APT1_NAME":"Phoenix Sky Harbor Intl","APT1_LAANC":0,"AIRSPACE_1":"B","REGION":"Western"}},{"type":"Feature","id":43910,"geometry":{"type":"Polygon","coordinates":[[[-112.008346882385,33.458338674144],[-112.008346882385,33.4666720094393],[-112.000013547089,33.4666720094393],[-112.000013547089,33.458338674144],[-112.008346882385,33.458338674144]]]},"properties":{"OBJECTID":43910,"CEILING":100,"UNIT":"Feet","MAP_EFF":"8/6/2026","LAST_EDIT":"5/8/2017","LATITUDE":33.46250534,"LONGITUDE":-112.00418020999999,"APT1_FAAID":"PHX","APT1_ICAO":"KPHX","APT1_NAME":"Phoenix Sky Harbor Intl","APT1_LAANC":1,"AIRSPACE_1":"B","REGION":"Western"}},{"type":"Feature","id":336109,"geometry":{"type":"Polygon","coordinates":[[[-112.033346887271,33.458338674144],[-112.033346887271,33.4666720094393],[-112.025013551975,33.4666720094393],[-112.025013551975,33.458338674144],[-112.033346887271,33.458338674144]]]},"properties":{"OBJECTID":336109,"CEILING":100,"UNIT":"Feet","MAP_EFF":"8/6/2026","LAST_EDIT":"5/8/2017","LATITUDE":33.46250534,"LONGITUDE":-112.02918022,"APT1_FAAID":"PHX","APT1_ICAO":"KPHX","APT1_NAME":"Phoenix Sky Harbor Intl","APT1_LAANC":1,"AIRSPACE_1":"B","REGION":"Western"}},{"type":"Feature","id":44010,"geometry":{"type":"Polygon","coordinates":[[[-112.091680232338,33.4666720094393],[-112.091680232338,33.4750053437347],[-112.083346897043,33.4750053437347],[-112.083346897043,33.4666720094393],[-112.091680232338,33.4666720094393]]]},"properties":{"OBJECTID":44010,"CEILING":300,"UNIT":"Feet","MAP_EFF":"8/6/2026","LAST_EDIT":"10/27/2017","LATITUDE":33.47083868,"LONGITUDE":-112.08751356,"APT1_FAAID":"PHX","APT1_ICAO":"KPHX","APT1_NAME":"Phoenix Sky Harbor Intl","APT1_LAANC":1,"AIRSPACE_1":"B","REGION":"Western"}},{"type":"Feature","id":43569,"geometry":{"type":"Polygon","coordinates":[[[-112.041680221566,33.4333386692579],[-112.041680221566,33.4416720035533],[-112.033346887271,33.4416720035533],[-112.033346887271,33.4333386692579],[-112.041680221566,33.4333386692579]]]},"properties":{"OBJECTID":43569,"CEILING":0,"UNIT":"Feet","MAP_EFF":"8/6/2026","LAST_EDIT":"5/8/2017","LATITUDE":33.43750534,"LONGITUDE":-112.03751355,"APT1_FAAID":"PHX","APT1_ICAO":"KPHX","APT1_NAME":"Phoenix Sky Harbor Intl","APT1_LAANC":1,"AIRSPACE_1":"B","REGION":"Western"}},{"type":"Feature","id":43326,"geometry":{"type":"Polygon","coordinates":[[[-112.050013556861,33.4166719986673],[-112.050013556861,33.4250053339626],[-112.041680221566,33.4250053339626],[-112.041680221566,33.4166719986673],[-112.050013556861,33.4166719986673]]]},"properties":{"OBJECTID":43326,"CEILING":0,"UNIT":"Feet","MAP_EFF":"8/6/2026","LAST_EDIT":"5/8/2017","LATITUDE":33.42083867,"LONGITUDE":-112.04584688999999,"APT1_FAAID":"PHX","APT1_ICAO":"KPHX","APT1_NAME":"Phoenix Sky Harbor Intl","APT1_LAANC":1,"AIRSPACE_1":"B","REGION":"Western"}},{"type":"Feature","id":43211,"geometry":{"type":"Polygon","coordinates":[[[-112.050013556861,33.4083386643719],[-112.050013556861,33.4166719986673],[-112.041680221566,33.4166719986673],[-112.041680221566,33.4083386643719],[-112.050013556861,33.4083386643719]]]},"properties":{"OBJECTID":43211,"CEILING":100,"UNIT":"Feet","MAP_EFF":"8/6/2026","LAST_EDIT":"5/8/2017","LATITUDE":33.41250533,"LONGITUDE":-112.04584688999999,"APT1_FAAID":"PHX","APT1_ICAO":"KPHX","APT1_NAME":"Phoenix Sky Harbor Intl","APT1_LAANC":1,"AIRSPACE_1":"B","REGION":"Western"}},{"type":"Feature","id":43804,"geometry":{"type":"Polygon","coordinates":[[[-112.01668021668,33.4500053388486],[-112.01668021668,33.458338674144],[-112.008346882385,33.458338674144],[-112.008346882385,33.4500053388486],[-112.01668021668,33.4500053388486]]]},"properties":{"OBJECTID":43804,"CEILING":100,"UNIT":"Feet","MAP_EFF":"8/6/2026","LAST_EDIT":"5/8/2017","LATITUDE":33.454172009999994,"LONGITUDE":-112.01251355000001,"APT1_FAAID":"PHX","APT1_ICAO":"KPHX","APT1_NAME":"Phoenix Sky Harbor Intl","APT1_LAANC":1,"AIRSPACE_1":"B","REGION":"Western"}},{"type":"Feature","id":43681,"geometry":{"type":"Polygon","coordinates":[[[-112.058346892157,33.4416720035533],[-112.058346892157,33.4500053388486],[-112.050013556861,33.4500053388486],[-112.050013556861,33.4416720035533],[-112.058346892157,33.4416720035533]]]},"properties":{"OBJECTID":43681,"CEILING":0,"UNIT":"Feet","MAP_EFF":"8/6/2026","LAST_EDIT":"5/8/2017","LATITUDE":33.44583867,"LONGITUDE":-112.05418022,"APT1_FAAID":"PHX","APT1_ICAO":"KPHX","APT1_NAME":"Phoenix Sky Harbor Intl","APT1_LAANC":1,"AIRSPACE_1":"B","REGION":"Western"}},{"type":"Feature","id":43689,"geometry":{"type":"Polygon","coordinates":[[[-112.033346887271,33.4416720035533],[-112.033346887271,33.4500053388486],[-112.025013551975,33.4500053388486],[-112.025013551975,33.4416720035533],[-112.033346887271,33.4416720035533]]]},"properties":{"OBJECTID":43689,"CEILING":0,"UNIT":"Feet","MAP_EFF":"8/6/2026","LAST_EDIT":"5/8/2017","LATITUDE":33.44583867,"LONGITUDE":-112.02918022,"APT1_FAAID":"PHX","APT1_ICAO":"KPHX","APT1_NAME":"Phoenix Sky Harbor Intl","APT1_LAANC":1,"AIRSPACE_1":"B","REGION":"Western"}},{"type":"Feature","id":43904,"geometry":{"type":"Polygon","coordinates":[[[-112.066680227452,33.458338674144],[-112.066680227452,33.4666720094393],[-112.058346892157,33.4666720094393],[-112.058346892157,33.458338674144],[-112.066680227452,33.458338674144]]]},"properties":{"OBJECTID":43904,"CEILING":100,"UNIT":"Feet","MAP_EFF":"8/6/2026","LAST_EDIT":"5/8/2017","LATITUDE":33.46250534,"LONGITUDE":-112.06251356,"APT1_FAAID":"PHX","APT1_ICAO":"KPHX","APT1_NAME":"Phoenix Sky Harbor Intl","APT1_LAANC":1,"AIRSPACE_1":"B","REGION":"Western"}},{"type":"Feature","id":43105,"geometry":{"type":"Polygon","coordinates":[[[-112.100013566633,33.4000053290765],[-112.100013566633,33.4083386643719],[-112.091680232338,33.4083386643719],[-112.091680232338,33.4000053290765],[-112.100013566633,33.4000053290765]]]},"properties":{"OBJECTID":43105,"CEILING":100,"UNIT":"Feet","MAP_EFF":"8/6/2026","LAST_EDIT":"5/8/2017","LATITUDE":33.404172,"LONGITUDE":-112.0958469,"APT1_FAAID":"PHX","APT1_ICAO":"KPHX","APT1_NAME":"Phoenix Sky Harbor Intl","APT1_LAANC":1,"AIRSPACE_1":"B","REGION":"Western"}},{"type":"Feature","id":43111,"geometry":{"type":"Polygon","coordinates":[[[-112.041680221566,33.4000053290765],[-112.041680221566,33.4083386643719],[-112.033346887271,33.4083386643719],[-112.033346887271,33.4000053290765],[-112.041680221566,33.4000053290765]]]},"properties":{"OBJECTID":43111,"CEILING":100,"UNIT":"Feet","MAP_EFF":"8/6/2026","LAST_EDIT":"5/8/2017","LATITUDE":33.404172,"LONGITUDE":-112.03751355,"APT1_FAAID":"PHX","APT1_ICAO":"KPHX","APT1_NAME":"Phoenix Sky Harbor Intl","APT1_LAANC":1,"AIRSPACE_1":"B","REGION":"Western"}},{"type":"Feature","id":43449,"geometry":{"type":"Polygon","coordinates":[[[-112.033346887271,33.4250053339626],[-112.033346887271,33.4333386692579],[-112.025013551975,33.4333386692579],[-112.025013551975,33.4250053339626],[-112.033346887271,33.4250053339626]]]},"properties":{"OBJECTID":43449,"CEILING":0,"UNIT":"Feet","MAP_EFF":"8/6/2026","LAST_EDIT":"5/8/2017","LATITUDE":33.429172,"LONGITUDE":-112.02918022,"APT1_FAAID":"PHX","APT1_ICAO":"KPHX","APT1_NAME":"Phoenix Sky Harbor Intl","APT1_LAANC":0,"AIRSPACE_1":"B","REGION":"Western"}},{"type":"Feature","id":43798,"geometry":{"type":"Polygon","coordinates":[[[-112.066680227452,33.4500053388486],[-112.066680227452,33.458338674144],[-112.058346892157,33.458338674144],[-112.058346892157,33.4500053388486],[-112.066680227452,33.4500053388486]]]},"properties":{"OBJECTID":43798,"CEILING":100,"UNIT":"Feet","MAP_EFF":"8/6/2026","LAST_EDIT":"5/8/2017","LATITUDE":33.454172009999994,"LONGITUDE":-112.06251356,"APT1_FAAID":"PHX","APT1_ICAO":"KPHX","APT1_NAME":"Phoenix Sky Harbor Intl","APT1_LAANC":1,"AIRSPACE_1":"B","REGION":"Western"}},{"type":"Feature","id":43437,"geometry":{"type":"Polygon","coordinates":[[[-112.083346897043,33.4250053339626],[-112.083346897043,33.4333386692579],[-112.075013561747,33.4333386692579],[-112.075013561747,33.4250053339626],[-112.083346897043,33.4250053339626]]]},"properties":{"OBJECTID":43437,"CEILING":100,"UNIT":"Feet","MAP_EFF":"8/6/2026","LAST_EDIT":"5/8/2017","LATITUDE":33.429172,"LONGITUDE":-112.07918022999999,"APT1_FAAID":"PHX","APT1_ICAO":"KPHX","APT1_NAME":"Phoenix Sky Harbor Intl","APT1_LAANC":1,"AIRSPACE_1":"B","REGION":"Western"}},{"type":"Feature","id":43907,"geometry":{"type":"Polygon","coordinates":[[[-112.041680221566,33.458338674144],[-112.041680221566,33.4666720094393],[-112.033346887271,33.4666720094393],[-112.033346887271,33.458338674144],[-112.041680221566,33.458338674144]]]},"properties":{"OBJECTID":43907,"CEILING":100,"UNIT":"Feet","MAP_EFF":"8/6/2026","LAST_EDIT":"5/8/2017","LATITUDE":33.46250534,"LONGITUDE":-112.03751355,"APT1_FAAID":"PHX","APT1_ICAO":"KPHX","APT1_NAME":"Phoenix Sky Harbor Intl","APT1_LAANC":1,"AIRSPACE_1":"B","REGION":"Western"}},{"type":"Feature","id":43678,"geometry":{"type":"Polygon","coordinates":[[[-112.083346897043,33.4416720035533],[-112.083346897043,33.4500053388486],[-112.075013561747,33.4500053388486],[-112.075013561747,33.4416720035533],[-112.083346897043,33.4416720035533]]]},"properties":{"OBJECTID":43678,"CEILING":100,"UNIT":"Feet","MAP_EFF":"8/6/2026","LAST_EDIT":"5/8/2017","LATITUDE":33.44583867,"LONGITUDE":-112.07918022999999,"APT1_FAAID":"PHX","APT1_ICAO":"KPHX","APT1_NAME":"Phoenix Sky Harbor Intl","APT1_LAANC":1,"AIRSPACE_1":"B","REGION":"Western"}},{"type":"Feature","id":43572,"geometry":{"type":"Polygon","coordinates":[[[-112.01668021668,33.4333386692579],[-112.01668021668,33.4416720035533],[-112.008346882385,33.4416720035533],[-112.008346882385,33.4333386692579],[-112.01668021668,33.4333386692579]]]},"properties":{"OBJECTID":43572,"CEILING":0,"UNIT":"Feet","MAP_EFF":"8/6/2026","LAST_EDIT":"5/8/2017","LATITUDE":33.43750534,"LONGITUDE":-112.01251355000001,"APT1_FAAID":"PHX","APT1_ICAO":"KPHX","APT1_NAME":"Phoenix Sky Harbor Intl","APT1_LAANC":0,"AIRSPACE_1":"B","REGION":"Western"}},{"type":"Feature","id":43323,"geometry":{"type":"Polygon","coordinates":[[[-112.083346897043,33.4166719986673],[-112.083346897043,33.4250053339626],[-112.075013561747,33.4250053339626],[-112.075013561747,33.4166719986673],[-112.083346897043,33.4166719986673]]]},"properties":{"OBJECTID":43323,"CEILING":100,"UNIT":"Feet","MAP_EFF":"8/6/2026","LAST_EDIT":"5/8/2017","LATITUDE":33.42083867,"LONGITUDE":-112.07918022999999,"APT1_FAAID":"PHX","APT1_ICAO":"KPHX","APT1_NAME":"Phoenix Sky Harbor Intl","APT1_LAANC":1,"AIRSPACE_1":"B","REGION":"Western"}},{"type":"Feature","id":44013,"geometry":{"type":"Polygon","coordinates":[[[-112.058346892157,33.4666720094393],[-112.058346892157,33.4750053437347],[-112.050013556861,33.4750053437347],[-112.050013556861,33.4666720094393],[-112.058346892157,33.4666720094393]]]},"properties":{"OBJECTID":44013,"CEILING":100,"UNIT":"Feet","MAP_EFF":"8/6/2026","LAST_EDIT":"5/8/2017","LATITUDE":33.47083868,"LONGITUDE":-112.05418022,"APT1_FAAID":"PHX","APT1_ICAO":"KPHX","APT1_NAME":"Phoenix Sky Harbor Intl","APT1_LAANC":1,"AIRSPACE_1":"B","REGION":"Western"}},{"type":"Feature","id":44113,"geometry":{"type":"Polygon","coordinates":[[[-112.066680227452,33.4750053437347],[-112.066680227452,33.48333867903],[-112.058346892157,33.48333867903],[-112.058346892157,33.4750053437347],[-112.066680227452,33.4750053437347]]]},"properties":{"OBJECTID":44113,"CEILING":100,"UNIT":"Feet","MAP_EFF":"8/6/2026","LAST_EDIT":"5/8/2017","LATITUDE":33.47917201,"LONGITUDE":-112.06251356,"APT1_FAAID":"PHX","APT1_ICAO":"KPHX","APT1_NAME":"Phoenix Sky Harbor Intl","APT1_LAANC":1,"AIRSPACE_1":"B","REGION":"Western"}},{"type":"Feature","id":44213,"geometry":{"type":"Polygon","coordinates":[[[-112.091680232338,33.48333867903],[-112.091680232338,33.4916720143253],[-112.083346897043,33.4916720143253],[-112.083346897043,33.48333867903],[-112.091680232338,33.48333867903]]]},"properties":{"OBJECTID":44213,"CEILING":300,"UNIT":"Feet","MAP_EFF":"8/6/2026","LAST_EDIT":"10/27/2017","LATITUDE":33.48750535,"LONGITUDE":-112.08751356,"APT1_FAAID":"PHX","APT1_ICAO":"KPHX","APT1_NAME":"Phoenix Sky Harbor Intl","APT1_LAANC":1,"AIRSPACE_1":"B","REGION":"Western"}}]}