{"type":"FeatureCollection","metadata":{"generated":1787054161000,"url":"https://earthquake.usgs.gov/fdsnws/event/1/query?format=geojson&starttime=2019-07-04T00%3A00%3A00Z&endtime=2019-07-08T00%3A00%3A00Z&minlatitude=33.0&maxlatitude=37.0&minlongitude=-120.0&maxlongitude=-115.0&minmagnitude=4.5&orderby=time-asc","title":"USGS Earthquakes","status":200,"api":"2.7.0","count":30},"features":[{"type":"Feature","properties":{"mag":6.4,"place":"Ridgecrest Earthquake Sequence","time":1562261629000,"updated":1766427283508,"tz":null,"url":"https://earthquake.usgs.gov/earthquakes/eventpage/ci38443183","detail":"https://earthquake.usgs.gov/fdsnws/event/1/query?eventid=ci38443183&format=geojson","felt":27543,"cdi":7.9,"mmi":8.377,"alert":"yellow","status":"reviewed","tsunami":1,"sig":1440,"net":"ci","code":"38443183","ids":",us70004a0g,ci38443183,at00pu4osc,pt19185001,iscgem616217956,nn00689167,","sources":",us,ci,at,pt,iscgem,nn,","types":",dyfi,focal-mechanism,general-link,general-text,ground-failure,impact-link,impact-text,losspager,moment-tensor,nearby-cities,origin,phase-data,scitech-link,shakemap,","nst":62,"dmin":0.1233,"rms":0.16,"gap":47,"magType":"mw","type":"earthquake","title":"M 6.4 - Ridgecrest Earthquake Sequence"},"geometry":{"type":"Point","coordinates":[-117.5038333,35.7053333,10.5]},"id":"ci38443183"},
{"type":"Feature","properties":{"mag":4.59,"place":"7km ESE of Ridgecrest, CA","time":1562265584440,"updated":1590023063535,"tz":null,"url":"https://earthquake.usgs.gov/earthquakes/eventpage/ci38443607","detail":"https://earthquake.usgs.gov/fdsnws/event/1/query?eventid=ci38443607&format=geojson","felt":603,"cdi":5.6,"mmi":5.66,"alert":"green","status":"reviewed","tsunami":0,"sig":662,"net":"ci","code":"38443607","ids":",us70004a3d,ci38443607,","sources":",us,ci,","types":",dyfi,focal-mechanism,losspager,nearby-cities,origin,phase-data,scitech-link,shakemap,","nst":48,"dmin":0.1109,"rms":0.14,"gap":39,"magType":"mw","type":"earthquake","title":"M 4.6 - 7km ESE of Ridgecrest, CA"},"geometry":{"type":"Point","coordinates":[-117.597,35.6013333,2.81]},"id":"ci38443607"},
{"type":"Feature","properties":{"mag":4.58,"place":"15km NE of Ridgecrest, CA","time":1562266566420,"updated":1590023165310,"tz":null,"url":"https://earthquake.usgs.gov/earthquakes/eventpage/ci38443719","detail":"https://earthquake.usgs.gov/fdsnws/event/1/query?eventid=ci38443719&format=geojson","felt":248,"cdi":7.4,"mmi":6.06,"alert":"green","status":"reviewed","tsunami":0,"sig":506,"net":"ci","code":"38443719","ids":",us70004a44,ci38443719,","sources":",us,ci,","types":",dyfi,focal-mechanism,losspager,moment-tensor,nearby-cities,origin,phase-data,scitech-link,shakemap,","nst":82,"dmin":0.1041,"rms":0.17,"gap":36,"magType":"mw","type":"earthquake","title":"M 4.6 - 15km NE of Ridgecrest, CA"},"geometry":{"type":"Point","coordinates":[-117.56,35.716,1.92]},"id":"ci38443719"},
{"type":"Feature","properties":{"mag":4.5,"place":"13km SSW of Searles Valley, CA","time":1562268092090,"updated":1569508212040,"tz":null,"url":"https://earthquake.usgs.gov/earthquakes/eventpage/ci38443871","detail":"https://earthquake.usgs.gov/fdsnws/event/1/query?eventid=ci38443871&format=geojson","felt":124,"cdi":5,"mmi":5.96,"alert":"green","status":"reviewed","tsunami":0,"sig":374,"net":"ci","code":"38443871","ids":",ci38443871,us70004a5e,","sources":",ci,us,","types":",dyfi,focal-mechanism,losspager,nearby-cities,origin,phase-data,scitech-link,shakemap,","nst":79,"dmin":0.08589,"rms":0.16,"gap":24,"magType":"mw","type":"earthquake","title":"M 4.5 - 13km SSW of Searles Valley, CA"},"geometry":{"type":"Point","coordinates":[-117.4788333,35.6715,5.16]},"id":"ci38443871"},
{"type":"Feature","properties":{"mag":5.37,"place":"16km W of Searles Valley, CA","time":1562324873040,"updated":1766427164702,"tz":null,"url":"https://earthquake.usgs.gov/earthquakes/eventpage/ci38450263","detail":"https://earthquake.usgs.gov/fdsnws/event/1/query?eventid=ci38450263&format=geojson","felt":3019,"cdi":6.1,"mmi":7.13,"alert":"green","status":"reviewed","tsunami":1,"sig":1054,"net":"ci","code":"38450263","ids":",ci38450263,at00pu61l5,us70004axh,iscgem616043696,","sources":",ci,at,us,iscgem,","types":",dyfi,focal-mechanism,ground-failure,impact-link,losspager,moment-tensor,nearby-cities,origin,phase-data,scitech-link,shakemap,","nst":79,"dmin":0.05824,"rms":0.2,"gap":43,"magType":"mw","type":"earthquake","title":"M 5.4 - 16km W of Searles Valley, CA"},"geometry":{"type":"Point","coordinates":[-117.575,35.7603333,6.95]},"id":"ci38450263"},
{"type":"Feature","properties":{"mag":4.97,"place":"14km WSW of Searles Valley, CA","time":1562382992480,"updated":1586129197030,"tz":null,"url":"https://earthquake.usgs.gov/earthquakes/eventpage/ci38457487","detail":"https://earthquake.usgs.gov/fdsnws/event/1/query?eventid=ci38457487&format=geojson","felt":63,"cdi":5,"mmi":6.68,"alert":"green","status":"reviewed","tsunami":0,"sig":412,"net":"ci","code":"38457487","ids":",ci38457487,us70004bmy,","sources":",ci,us,","types":",dyfi,focal-mechanism,losspager,moment-tensor,nearby-cities,origin,phase-data,scitech-link,shakemap,","nst":83,"dmin":0.09705,"rms":0.19,"gap":35,"magType":"mw","type":"earthquake","title":"M 5.0 - 14km WSW of Searles Valley, CA"},"geometry":{"type":"Point","coordinates":[-117.5535,35.7253333,0.88]},"id":"ci38457487"},
{"type":"Feature","properties":{"mag":7.1,"place":"Ridgecrest Earthquake Sequence","time":1562383193040,"updated":1785244957753,"tz":-480,"url":"https://earthquake.usgs.gov/earthquakes/eventpage/ci38457511","detail":"https://earthquake.usgs.gov/fdsnws/event/1/query?eventid=ci38457511&format=geojson","felt":39888,"cdi":8.7,"mmi":8.73,"alert":"yellow","status":"reviewed","tsunami":0,"sig":1646,"net":"ci","code":"38457511","ids":",ci38457511,us70004bn0,at00pu7alg,pt19187000,iscgem616203758,","sources":",ci,us,at,pt,iscgem,","types":",dyfi,earthquake-name,event-sequence,finite-fault,focal-mechanism,general-link,general-text,geoserve,ground-failure,impact-text,losspager,moment-tensor,nearby-cities,oaf,origin,phase-data,poster,scitech-link,shakemap,","nst":77,"dmin":0.04616,"rms":0.22,"gap":43,"magType":"mw","type":"earthquake","title":"M 7.1 - Ridgecrest Earthquake Sequence"},"geometry":{"type":"Point","coordinates":[-117.5993333,35.7695,8]},"id":"ci38457511"},
{"type":"Feature","properties":{"mag":4.81,"place":"15km E of Little Lake, CA","time":1562383241140,"updated":1565899774004,"tz":null,"url":"https://earthquake.usgs.gov/earthquakes/eventpage/ci37222196","detail":"https://earthquake.usgs.gov/fdsnws/event/1/query?eventid=ci37222196&format=geojson","felt":null,"cdi":null,"mmi":5.597,"alert":null,"status":"reviewed","tsunami":0,"sig":356,"net":"ci","code":"37222196","ids":",ci37222196,","sources":",ci,","types":",nearby-cities,origin,phase-data,shakemap,","nst":13,"dmin":0.06493,"rms":0.09,"gap":93,"magType":"mlr","type":"earthquake","title":"M 4.8 - 15km E of Little Lake, CA"},"geometry":{"type":"Point","coordinates":[-117.7376667,35.9496667,9.28]},"id":"ci37222196"},
{"type":"Feature","properties":{"mag":4.64,"place":"16km E of Little Lake, CA","time":1562383323570,"updated":1573838585605,"tz":null,"url":"https://earthquake.usgs.gov/earthquakes/eventpage/ci38457519","detail":"https://earthquake.usgs.gov/fdsnws/event/1/query?eventid=ci38457519&format=geojson","felt":7,"cdi":4.1,"mmi":6.54,"alert":"green","status":"reviewed","tsunami":0,"sig":334,"net":"ci","code":"38457519","ids":",ci38457519,us70004bq4,","sources":",ci,us,","types":",dyfi,losspager,nearby-cities,origin,phase-data,scitech-link,shakemap,","nst":21,"dmin":0.06897,"rms":0.15,"gap":52,"magType":"mlr","type":"earthquake","title":"M 4.6 - 16km E of Little Lake, CA"},"geometry":{"type":"Point","coordinates":[-117.729,35.9216667,8.17]},"id":"ci38457519"},
{"type":"Feature","properties":{"mag":4.55,"place":"13km W of Searles Valley, CA","time":1562383337100,"updated":1565302062040,"tz":null,"url":"https://earthquake.usgs.gov/earthquakes/eventpage/ci37219484","detail":"https://earthquake.usgs.gov/fdsnws/event/1/query?eventid=ci37219484&format=geojson","felt":null,"cdi":null,"mmi":5.494,"alert":null,"status":"reviewed","tsunami":0,"sig":318,"net":"ci","code":"37219484","ids":",ci37219484,us60004x4n,","sources":",ci,us,","types":",nearby-cities,origin,phase-data,shakemap,","nst":22,"dmin":0.07966,"rms":0.2,"gap":70,"magType":"mlr","type":"earthquake","title":"M 4.6 - 13km W of Searles Valley, CA"},"geometry":{"type":"Point","coordinates":[-117.5456667,35.748,3.9]},"id":"ci37219484"},
{"type":"Feature","properties":{"mag":4.73,"place":"17km S of Searles Valley, CA","time":1562383355630,"updated":1613762262104,"tz":null,"url":"https://earthquake.usgs.gov/earthquakes/eventpage/ci37219500","detail":"https://earthquake.usgs.gov/fdsnws/event/1/query?eventid=ci37219500&format=geojson","felt":null,"cdi":null,"mmi":5.274,"alert":null,"status":"reviewed","tsunami":0,"sig":344,"net":"ci","code":"37219500","ids":",ci37219500,us60004xjc,","sources":",ci,us,","types":",disassociate,nearby-cities,origin,phase-data,shakemap,","nst":7,"dmin":0.03984,"rms":0.14,"gap":180,"magType":"mlr","type":"earthquake","title":"M 4.7 - 17km S of Searles Valley, CA"},"geometry":{"type":"Point","coordinates":[-117.4301667,35.6166667,9.35]},"id":"ci37219500"},
{"type":"Feature","properties":{"mag":4.64,"place":"16km ESE of Little Lake, CA","time":1562383368300,"updated":1573838261338,"tz":null,"url":"https://earthquake.usgs.gov/earthquakes/eventpage/ci37219156","detail":"https://earthquake.usgs.gov/fdsnws/event/1/query?eventid=ci37219156&format=geojson","felt":4,"cdi":2.2,"mmi":6.33,"alert":"green","status":"reviewed","tsunami":0,"sig":332,"net":"ci","code":"37219156","ids":",ci37219156,us70004dlk,","sources":",ci,us,","types":",dyfi,losspager,nearby-cities,origin,phase-data,scitech-link,shakemap,","nst":29,"dmin":0.08543,"rms":0.16,"gap":34,"magType":"mlr","type":"earthquake","title":"M 4.6 - 16km ESE of Little Lake, CA"},"geometry":{"type":"Point","coordinates":[-117.7365,35.891,9.1]},"id":"ci37219156"},
{"type":"Feature","properties":{"mag":4.52,"place":"22km ESE of Little Lake, CA","time":1562383399870,"updated":1565302214040,"tz":null,"url":"https://earthquake.usgs.gov/earthquakes/eventpage/ci37219468","detail":"https://earthquake.usgs.gov/fdsnws/event/1/query?eventid=ci37219468&format=geojson","felt":null,"cdi":null,"mmi":5.162,"alert":null,"status":"reviewed","tsunami":0,"sig":314,"net":"ci","code":"37219468","ids":",ci37219468,us60004x4a,","sources":",ci,us,","types":",nearby-cities,origin,phase-data,shakemap,","nst":13,"dmin":0.07937,"rms":0.24,"gap":85,"magType":"mlr","type":"earthquake","title":"M 4.5 - 22km ESE of Little Lake, CA"},"geometry":{"type":"Point","coordinates":[-117.6778333,35.861,6.82]},"id":"ci37219468"},
{"type":"Feature","properties":{"mag":4.84,"place":"20km WNW of Searles Valley, CA","time":1562383430720,"updated":1573838762971,"tz":null,"url":"https://earthquake.usgs.gov/earthquakes/eventpage/ci37219164","detail":"https://earthquake.usgs.gov/fdsnws/event/1/query?eventid=ci37219164&format=geojson","felt":23,"cdi":4.1,"mmi":6.92,"alert":"green","status":"reviewed","tsunami":0,"sig":370,"net":"ci","code":"37219164","ids":",us70004bp7,ci37219164,","sources":",us,ci,","types":",dyfi,ground-failure,losspager,nearby-cities,origin,phase-data,scitech-link,shakemap,","nst":39,"dmin":0.02074,"rms":0.23,"gap":54,"magType":"mlr","type":"earthquake","title":"M 4.8 - 20km WNW of Searles Valley, CA"},"geometry":{"type":"Point","coordinates":[-117.6178333,35.8031667,11.44]},"id":"ci37219164"},
{"type":"Feature","properties":{"mag":4.61,"place":"23km ESE of Little Lake, CA","time":1562383527970,"updated":1569508225040,"tz":null,"url":"https://earthquake.usgs.gov/earthquakes/eventpage/ci37219172","detail":"https://earthquake.usgs.gov/fdsnws/event/1/query?eventid=ci37219172&format=geojson","felt":4,"cdi":3.4,"mmi":6.05,"alert":"green","status":"reviewed","tsunami":0,"sig":328,"net":"ci","code":"37219172","ids":",us70004bpr,ci37219172,","sources":",us,ci,","types":",dyfi,losspager,nearby-cities,origin,phase-data,scitech-link,shakemap,","nst":37,"dmin":0.07456,"rms":0.2,"gap":43,"magType":"mlr","type":"earthquake","title":"M 4.6 - 23km ESE of Little Lake, CA"},"geometry":{"type":"Point","coordinates":[-117.6708333,35.8606667,10.32]},"id":"ci37219172"},
{"type":"Feature","properties":{"mag":4.5,"place":"16km E of Little Lake, CA","time":1562383627010,"updated":1569508230040,"tz":null,"url":"https://earthquake.usgs.gov/earthquakes/eventpage/ci37219180","detail":"https://earthquake.usgs.gov/fdsnws/event/1/query?eventid=ci37219180&format=geojson","felt":1,"cdi":3.8,"mmi":5.72,"alert":"green","status":"reviewed","tsunami":0,"sig":312,"net":"ci","code":"37219180","ids":",us70004btc,ci37219180,","sources":",us,ci,","types":",dyfi,losspager,nearby-cities,origin,phase-data,scitech-link,shakemap,","nst":27,"dmin":0.07004,"rms":0.18,"gap":56,"magType":"mlr","type":"earthquake","title":"M 4.5 - 16km E of Little Lake, CA"},"geometry":{"type":"Point","coordinates":[-117.7258333,35.9138333,8]},"id":"ci37219180"},
{"type":"Feature","properties":{"mag":4.57,"place":"24km ESE of Ridgecrest, CA","time":1562383631370,"updated":1567791131137,"tz":null,"url":"https://earthquake.usgs.gov/earthquakes/eventpage/ci37219564","detail":"https://earthquake.usgs.gov/fdsnws/event/1/query?eventid=ci37219564&format=geojson","felt":null,"cdi":null,"mmi":5.751,"alert":null,"status":"reviewed","tsunami":0,"sig":321,"net":"ci","code":"37219564","ids":",ci37219564,","sources":",ci,","types":",nearby-cities,origin,phase-data,shakemap,","nst":7,"dmin":0.05475,"rms":0.1,"gap":119,"magType":"mlr","type":"earthquake","title":"M 4.6 - 24km ESE of Ridgecrest, CA"},"geometry":{"type":"Point","coordinates":[-117.4313333,35.5303333,3.83]},"id":"ci37219564"},
{"type":"Feature","properties":{"mag":4.51,"place":"18km ESE of Little Lake, CA","time":1562383772080,"updated":1573839467310,"tz":null,"url":"https://earthquake.usgs.gov/earthquakes/eventpage/ci38457583","detail":"https://earthquake.usgs.gov/fdsnws/event/1/query?eventid=ci38457583&format=geojson","felt":2,"cdi":2.7,"mmi":5.9,"alert":"green","status":"reviewed","tsunami":0,"sig":313,"net":"ci","code":"38457583","ids":",ci38457583,us70004dcq,","sources":",ci,us,","types":",dyfi,losspager,nearby-cities,origin,phase-data,scitech-link,shakemap,","nst":27,"dmin":0.06696,"rms":0.15,"gap":42,"magType":"mlr","type":"earthquake","title":"M 4.5 - 18km ESE of Little Lake, CA"},"geometry":{"type":"Point","coordinates":[-117.7115,35.9028333,3.18]},"id":"ci38457583"},
{"type":"Feature","properties":{"mag":5.5,"place":"15km ESE of Little Lake, CA","time":1562384873420,"updated":1766427457984,"tz":null,"url":"https://earthquake.usgs.gov/earthquakes/eventpage/ci38457687","detail":"https://earthquake.usgs.gov/fdsnws/event/1/query?eventid=ci38457687&format=geojson","felt":32,"cdi":7.1,"mmi":6.605,"alert":null,"status":"reviewed","tsunami":0,"sig":488,"net":"ci","code":"38457687","ids":",ci38457687,us70004bpa,iscgem616599895,","sources":",ci,us,iscgem,","types":",dyfi,focal-mechanism,moment-tensor,nearby-cities,origin,phase-data,scitech-link,shakemap,","nst":49,"dmin":0.07334,"rms":0.16,"gap":33,"magType":"mw","type":"earthquake","title":"M 5.5 - 15km ESE of Little Lake, CA"},"geometry":{"type":"Point","coordinates":[-117.7495,35.9011667,5.04]},"id":"ci38457687"},
{"type":"Feature","properties":{"mag":4.97,"place":"19km E of Little Lake, CA","time":1562385059710,"updated":1573841342473,"tz":null,"url":"https://earthquake.usgs.gov/earthquakes/eventpage/ci38457703","detail":"https://earthquake.usgs.gov/fdsnws/event/1/query?eventid=ci38457703&format=geojson","felt":2,"cdi":2.2,"mmi":4.894,"alert":null,"status":"reviewed","tsunami":0,"sig":380,"net":"ci","code":"38457703","ids":",ci38457703,us70004bpm,","sources":",ci,us,","types":",dyfi,focal-mechanism,nearby-cities,origin,phase-data,scitech-link,shakemap,","nst":43,"dmin":0.05997,"rms":0.17,"gap":38,"magType":"mlr","type":"earthquake","title":"M 5.0 - 19km E of Little Lake, CA"},"geometry":{"type":"Point","coordinates":[-117.7001667,35.9035,8.26]},"id":"ci38457703"},
{"type":"Feature","properties":{"mag":4.68,"place":"16km ESE of Ridgecrest, CA","time":1562386024570,"updated":1583187578728,"tz":null,"url":"https://earthquake.usgs.gov/earthquakes/eventpage/ci38457775","detail":"https://earthquake.usgs.gov/fdsnws/event/1/query?eventid=ci38457775&format=geojson","felt":2,"cdi":6.1,"mmi":6.07,"alert":"green","status":"reviewed","tsunami":0,"sig":338,"net":"ci","code":"38457775","ids":",ci38457775,us70004bqg,","sources":",ci,us,","types":",dyfi,focal-mechanism,losspager,nearby-cities,origin,phase-data,scitech-link,shakemap,","nst":90,"dmin":0.05757,"rms":0.23,"gap":24,"magType":"mlr","type":"earthquake","title":"M 4.7 - 16km ESE of Ridgecrest, CA"},"geometry":{"type":"Point","coordinates":[-117.5215,35.5551667,5.5]},"id":"ci38457775"},
{"type":"Feature","properties":{"mag":4.8,"place":"7km SE of Ridgecrest, CA","time":1562386387080,"updated":1573842194307,"tz":null,"url":"https://earthquake.usgs.gov/earthquakes/eventpage/ci38457815","detail":"https://earthquake.usgs.gov/fdsnws/event/1/query?eventid=ci38457815&format=geojson","felt":2,"cdi":2.2,"mmi":5.392,"alert":"green","status":"reviewed","tsunami":0,"sig":355,"net":"ci","code":"38457815","ids":",us70004bqm,ci38457815,","sources":",us,ci,","types":",dyfi,focal-mechanism,losspager,nearby-cities,origin,phase-data,scitech-link,shakemap,","nst":62,"dmin":0.1185,"rms":0.18,"gap":32,"magType":"mlr","type":"earthquake","title":"M 4.8 - 7km SE of Ridgecrest, CA"},"geometry":{"type":"Point","coordinates":[-117.6145,35.5846667,9.73]},"id":"ci38457815"},
{"type":"Feature","properties":{"mag":5.44,"place":"20km E of Little Lake, CA","time":1562386735790,"updated":1766427274556,"tz":null,"url":"https://earthquake.usgs.gov/earthquakes/eventpage/ci38457847","detail":"https://earthquake.usgs.gov/fdsnws/event/1/query?eventid=ci38457847&format=geojson","felt":33,"cdi":5.4,"mmi":7.1,"alert":"green","status":"reviewed","tsunami":0,"sig":473,"net":"ci","code":"38457847","ids":",us70004bqv,ci38457847,iscgem616203759,","sources":",us,ci,iscgem,","types":",dyfi,focal-mechanism,ground-failure,losspager,moment-tensor,nearby-cities,origin,phase-data,scitech-link,shakemap,","nst":66,"dmin":0.07213,"rms":0.17,"gap":37,"magType":"mw","type":"earthquake","title":"M 5.4 - 20km E of Little Lake, CA"},"geometry":{"type":"Point","coordinates":[-117.6848333,35.9101667,7.41]},"id":"ci38457847"},
{"type":"Feature","properties":{"mag":4.85,"place":"16km ESE of Little Lake, CA","time":1562387815310,"updated":1583442031509,"tz":null,"url":"https://earthquake.usgs.gov/earthquakes/eventpage/ci38457967","detail":"https://earthquake.usgs.gov/fdsnws/event/1/query?eventid=ci38457967&format=geojson","felt":1,"cdi":4.1,"mmi":6.57,"alert":"green","status":"reviewed","tsunami":0,"sig":362,"net":"ci","code":"38457967","ids":",us70004bs9,ci38457967,","sources":",us,ci,","types":",dyfi,focal-mechanism,losspager,nearby-cities,origin,phase-data,scitech-link,shakemap,","nst":62,"dmin":0.08153,"rms":0.17,"gap":35,"magType":"mw","type":"earthquake","title":"M 4.9 - 16km ESE of Little Lake, CA"},"geometry":{"type":"Point","coordinates":[-117.7376667,35.9,1.9]},"id":"ci38457967"},
{"type":"Feature","properties":{"mag":4.63,"place":"15km E of Little Lake, CA","time":1562392911800,"updated":1573844084787,"tz":null,"url":"https://earthquake.usgs.gov/earthquakes/eventpage/ci38458679","detail":"https://earthquake.usgs.gov/fdsnws/event/1/query?eventid=ci38458679&format=geojson","felt":2,"cdi":2.2,"mmi":6.27,"alert":"green","status":"reviewed","tsunami":0,"sig":330,"net":"ci","code":"38458679","ids":",ci38458679,us70004bwb,","sources":",ci,us,","types":",dyfi,losspager,moment-tensor,nearby-cities,origin,phase-data,scitech-link,shakemap,","nst":67,"dmin":0.07482,"rms":0.14,"gap":36,"magType":"mw","type":"earthquake","title":"M 4.6 - 15km E of Little Lake, CA"},"geometry":{"type":"Point","coordinates":[-117.7385,35.911,4.99]},"id":"ci38458679"},
{"type":"Feature","properties":{"mag":4.56,"place":"16km SSW of Searles Valley, CA","time":1562401977550,"updated":1569508237040,"tz":null,"url":"https://earthquake.usgs.gov/earthquakes/eventpage/ci38460311","detail":"https://earthquake.usgs.gov/fdsnws/event/1/query?eventid=ci38460311&format=geojson","felt":13,"cdi":4.3,"mmi":6.12,"alert":"green","status":"reviewed","tsunami":0,"sig":325,"net":"ci","code":"38460311","ids":",ci38460311,us70004c5t,","sources":",ci,us,","types":",dyfi,focal-mechanism,losspager,moment-tensor,nearby-cities,origin,phase-data,scitech-link,shakemap,","nst":83,"dmin":0.05751,"rms":0.15,"gap":24,"magType":"mw","type":"earthquake","title":"M 4.6 - 16km SSW of Searles Valley, CA"},"geometry":{"type":"Point","coordinates":[-117.4913333,35.639,3.14]},"id":"ci38460311"},
{"type":"Feature","properties":{"mag":4.89,"place":"17km ESE of Little Lake, CA","time":1562405308980,"updated":1766427458659,"tz":null,"url":"https://earthquake.usgs.gov/earthquakes/eventpage/ci38460967","detail":"https://earthquake.usgs.gov/fdsnws/event/1/query?eventid=ci38460967&format=geojson","felt":12,"cdi":4.2,"mmi":6.92,"alert":"green","status":"reviewed","tsunami":0,"sig":373,"net":"ci","code":"38460967","ids":",ci38460967,us70004c9d,iscgem616600084,","sources":",ci,us,iscgem,","types":",dyfi,focal-mechanism,losspager,moment-tensor,nearby-cities,origin,phase-data,scitech-link,shakemap,","nst":67,"dmin":0.0896,"rms":0.16,"gap":37,"magType":"mw","type":"earthquake","title":"M 4.9 - 17km ESE of Little Lake, CA"},"geometry":{"type":"Point","coordinates":[-117.7271667,35.898,3.95]},"id":"ci38460967"},
{"type":"Feature","properties":{"mag":4.5,"place":"18km E of Little Lake, CA","time":1562418415260,"updated":1569508242040,"tz":null,"url":"https://earthquake.usgs.gov/earthquakes/eventpage/ci38463551","detail":"https://earthquake.usgs.gov/fdsnws/event/1/query?eventid=ci38463551&format=geojson","felt":8,"cdi":3.1,"mmi":5.56,"alert":"green","status":"reviewed","tsunami":0,"sig":314,"net":"ci","code":"38463551","ids":",ci38463551,us70004cmp,","sources":",ci,us,","types":",dyfi,focal-mechanism,losspager,moment-tensor,nearby-cities,origin,phase-data,scitech-link,shakemap,","nst":64,"dmin":0.04844,"rms":0.16,"gap":34,"magType":"mw","type":"earthquake","title":"M 4.5 - 18km E of Little Lake, CA"},"geometry":{"type":"Point","coordinates":[-117.705,35.9283333,2.37]},"id":"ci38463551"},
{"type":"Feature","properties":{"mag":4.5,"place":"23km N of Ridgecrest, CA","time":1562457041990,"updated":1569508248040,"tz":null,"url":"https://earthquake.usgs.gov/earthquakes/eventpage/ci38469375","detail":"https://earthquake.usgs.gov/fdsnws/event/1/query?eventid=ci38469375&format=geojson","felt":138,"cdi":5.7,"mmi":6.66,"alert":"green","status":"reviewed","tsunami":0,"sig":390,"net":"ci","code":"38469375","ids":",ci38469375,us70004de4,","sources":",ci,us,","types":",dyfi,focal-mechanism,losspager,moment-tensor,nearby-cities,origin,phase-data,scitech-link,shakemap,","nst":69,"dmin":0.05379,"rms":0.14,"gap":28,"magType":"mw","type":"earthquake","title":"M 4.5 - 23km N of Ridgecrest, CA"},"geometry":{"type":"Point","coordinates":[-117.663,35.8235,6.51]},"id":"ci38469375"},
{"type":"Feature","properties":{"mag":4.53,"place":"16km W of Searles Valley, CA","time":1562477895480,"updated":1636498662940,"tz":null,"url":"https://earthquake.usgs.gov/earthquakes/eventpage/ci38472279","detail":"https://earthquake.usgs.gov/fdsnws/event/1/query?eventid=ci38472279&format=geojson","felt":180,"cdi":4.8,"mmi":6.18,"alert":"green","status":"reviewed","tsunami":0,"sig":402,"net":"ci","code":"38472279","ids":",ci38472279,us70004dlx,","sources":",ci,us,","types":",dyfi,focal-mechanism,losspager,moment-tensor,nearby-cities,origin,phase-data,scitech-link,shakemap,","nst":77,"dmin":0.04985,"rms":0.16,"gap":44,"magType":"mw","type":"earthquake","title":"M 4.5 - 16km W of Searles Valley, CA"},"geometry":{"type":"Point","coordinates":[-117.5781667,35.7683333,10.45]},"id":"ci38472279"}],"bbox":[-117.7495,35.5303333,0.88,-117.4301667,35.9496667,11.44]}